"","wikidata_name","wikidata_id","parent_name","parent_id","parent_icb","parent_imi","parent_mids","parent_mip","parent_mips","parent_rand"
"1","1989 Philippine coup attempt","Q4585384","1989 Philippine coup attempt","Q4585384",NA,"US aids Phillippine government after coup attempt (AP, UPI, Xinh)",NA,"Philippines Coup Attempt",NA,NA
"2","Operation Uphold Democracy","Q2026486","1991 Haitian coup d'état","Q4586873","HAITI MIL. REGIME","US restores democratically elected government in Haiti  (UPI, AP)","4016","Operation Uphold Democracy","Operation Uphold Democracy","Operation Uphold Democracy"
"3","Operation Secure Tomorrow","Q7097528","2004 Haitian coup d'état","Q2883469",NA,"US aids in restoring order in Haiti (AP, AFP)",NA,"Operation Secure Tomorrow",NA,"Operation Secure Tomorrow"
"4","2017 al-Jinah airstrike","Q28983702","Syrian Civil War","Q178810","SYRIA CHEMICAL WEAPONS",NA,NA,"c(""Syrian Civil War/Counter IS"", ""U.S. involvement in Syrian Civil War"")",NA,"Operation Inherent Resolve"
"5","2017 Shayrat missile strike","Q29197866","Syrian Civil War","Q178810","SYRIA CHEMICAL WEAPONS",NA,NA,"c(""Syrian Civil War/Counter IS"", ""U.S. involvement in Syrian Civil War"")",NA,"Operation Inherent Resolve"
"6","2018 missile strikes against Syria","Q51844684","Syrian Civil War","Q178810","SYRIA CHEMICAL WEAPONS",NA,NA,"c(""Syrian Civil War/Counter IS"", ""U.S. involvement in Syrian Civil War"")",NA,"Operation Inherent Resolve"
"7","Al-Hawl Offensive (2015)","Q21405560","Syrian Civil War","Q178810","SYRIA CHEMICAL WEAPONS",NA,NA,"c(""Syrian Civil War/Counter IS"", ""U.S. involvement in Syrian Civil War"")",NA,"Operation Inherent Resolve"
"8","Al-Shaddadi offensive (2016)","Q22894201","Syrian Civil War","Q178810","SYRIA CHEMICAL WEAPONS",NA,NA,"c(""Syrian Civil War/Counter IS"", ""U.S. involvement in Syrian Civil War"")",NA,"Operation Inherent Resolve"
"9","Barisha raid","Q72587856","Syrian Civil War","Q178810","SYRIA CHEMICAL WEAPONS",NA,NA,"c(""Syrian Civil War/Counter IS"", ""U.S. involvement in Syrian Civil War"")",NA,"Operation Inherent Resolve"
"10","Ja'Din shootdown incident","Q60756557","Syrian Civil War","Q178810","SYRIA CHEMICAL WEAPONS",NA,NA,"c(""Syrian Civil War/Counter IS"", ""U.S. involvement in Syrian Civil War"")",NA,"Operation Inherent Resolve"
"11","May 2015 U.S. special forces raid in Syria","Q20860131","Syrian Civil War","Q178810","SYRIA CHEMICAL WEAPONS",NA,NA,"c(""Syrian Civil War/Counter IS"", ""U.S. involvement in Syrian Civil War"")",NA,"Operation Inherent Resolve"
"12","Operation Tidal Wave II","Q22907504","Syrian Civil War","Q178810","SYRIA CHEMICAL WEAPONS",NA,NA,"c(""Syrian Civil War/Counter IS"", ""U.S. involvement in Syrian Civil War"")",NA,"Operation Inherent Resolve"
"13","September 2016 Deir ez-Zor air raid","Q26945162","Syrian Civil War","Q178810","SYRIA CHEMICAL WEAPONS",NA,NA,"c(""Syrian Civil War/Counter IS"", ""U.S. involvement in Syrian Civil War"")",NA,"Operation Inherent Resolve"
"14","Tishrin Dam offensive","Q21860041","Syrian Civil War","Q178810","SYRIA CHEMICAL WEAPONS",NA,NA,"c(""Syrian Civil War/Counter IS"", ""U.S. involvement in Syrian Civil War"")",NA,"Operation Inherent Resolve"
"15","2017 Baghdad–Damascus highway offensive","Q29991963","Syrian Civil War","Q178810",NA,NA,NA,NA,NA,NA
"16","Palmyra offensive (December 2016)","Q27988133","Syrian Civil War","Q178810",NA,NA,NA,NA,NA,NA
"17","2017 southern Syria offensive","Q28162889","Syrian Civil War","Q178810",NA,NA,NA,NA,NA,NA
"18","Northern Aleppo offensive","Q25242026","Syrian Civil War","Q178810",NA,NA,NA,NA,NA,NA
"19","Al-Hasakah city offensive (June 2015)","Q20241081","Syrian Civil War","Q178810",NA,NA,NA,NA,NA,NA
"20","Al-Hasakah offensive","Q19428973","Syrian Civil War","Q178810",NA,NA,NA,NA,NA,NA
"21","Al-Hasakah offensive","Q20050670","Syrian Civil War","Q178810",NA,NA,NA,NA,NA,NA
"22","Battle of Sarrin (June–July 2015)","Q20715216","Syrian Civil War","Q178810",NA,NA,NA,NA,NA,NA
"23","Battle of Sarrin (March–April 2015)","Q19691931","Syrian Civil War","Q178810",NA,NA,NA,NA,NA,NA
"24","Deir ez-Zor offensive","Q39899474","Syrian Civil War","Q178810",NA,NA,NA,NA,NA,NA
"25","Manbij offensive","Q23701421","Syrian Civil War","Q178810",NA,NA,NA,NA,NA,NA
"26","Northern Raqqa offensive (May 2016)","Q24255637","Syrian Civil War","Q178810",NA,NA,NA,NA,NA,NA
"27","Battle of Raqqa (2017)","Q30140821","Syrian Civil War","Q178810",NA,NA,NA,NA,NA,NA
"28","Battle of Tabqa Dam","Q29258911","Syrian Civil War","Q178810",NA,NA,NA,NA,NA,NA
"29","2016 Dabiq offensive","Q27185813","Syrian Civil War","Q178810",NA,NA,NA,NA,NA,NA
"30","Battle of al-Bab","Q27915277","Syrian Civil War","Q178810",NA,NA,NA,NA,NA,NA
"31","East Aleppo offensive","Q28846183","Syrian Civil War","Q178810",NA,NA,NA,NA,NA,NA
"32","Northern al-Bab offensive","Q27630575","Syrian Civil War","Q178810",NA,NA,NA,NA,NA,NA
"33","2020 Baghdad International Airport airstrike","Q80754846","2019–20 Persian Gulf crisis","Q65920364",NA,NA,NA,NA,NA,NA
"34","December 2019 United States airstrikes in Iraq and Syria","Q26847124","2019–20 Persian Gulf crisis","Q65920364",NA,NA,NA,"Baghdad Embassy Protection",NA,NA
"35","February 2021 United States airstrike in Syria","Q105707091","2019–20 Persian Gulf crisis","Q65920364",NA,NA,NA,NA,NA,NA
"36","June 2021 United States airstrike in Syria","Q107504334","2019–20 Persian Gulf crisis","Q65920364",NA,NA,NA,NA,NA,NA
"37","Operation Gothic Serpent","Q3428977","Somali Civil War","Q243620",NA,NA,NA,"UNOSOM II",NA,NA
"38","Operation United Shield","Q16250538","Somali Civil War","Q243620",NA,NA,NA,"UNOSOM II",NA,"Operation United Shield"
"39","Dobley airstrike","Q5286642","Somali Civil War","Q243620",NA,NA,NA,NA,NA,NA
"40","2017 raid on Barii","Q30625807","Somali Civil War","Q243620",NA,NA,NA,NA,NA,NA
"41","Operation Indian Ocean","Q18128999","Somali Civil War","Q243620",NA,NA,NA,NA,NA,NA
"42","Amiriyah shelter bombing","Q2071090","Gulf War","Q37643","GULF WAR","c(""US in Saudi Arabia to protect it from Iraqi invasion in Op. Desert Shield (US Today, Des. Shield Factbook, Gulf War Chronicle)"", ""US restores Kuwaiti government in Desert Storm (USA Today, Gulf War Chronicle)"", ""US moves troops into Iraq from Saudi Arabia (USA Today, Factbook, Gulf War Chronicle)"")","c(""3957"", ""3973"", ""3974"")","Operation Desert Storm","c(""Desert Shield"", ""Desert Storm"")","c(""Operation Desert Storm"", ""Task Force Freedom"")"
"43","Attack on Ras Tanura","Q28162756","Gulf War","Q37643","GULF WAR","c(""US in Saudi Arabia to protect it from Iraqi invasion in Op. Desert Shield (US Today, Des. Shield Factbook, Gulf War Chronicle)"", ""US restores Kuwaiti government in Desert Storm (USA Today, Gulf War Chronicle)"", ""US moves troops into Iraq from Saudi Arabia (USA Today, Factbook, Gulf War Chronicle)"")","c(""3957"", ""3973"", ""3974"")","Operation Desert Storm","c(""Desert Shield"", ""Desert Storm"")","c(""Operation Desert Storm"", ""Task Force Freedom"")"
"44","Package Q Strike","Q7122885","Gulf War","Q37643","GULF WAR","c(""US in Saudi Arabia to protect it from Iraqi invasion in Op. Desert Shield (US Today, Des. Shield Factbook, Gulf War Chronicle)"", ""US restores Kuwaiti government in Desert Storm (USA Today, Gulf War Chronicle)"", ""US moves troops into Iraq from Saudi Arabia (USA Today, Factbook, Gulf War Chronicle)"")","c(""3957"", ""3973"", ""3974"")","Operation Desert Storm","c(""Desert Shield"", ""Desert Storm"")","c(""Operation Desert Storm"", ""Task Force Freedom"")"
"45","Samurra Air Battle","Q28162754","Gulf War","Q37643","GULF WAR","c(""US in Saudi Arabia to protect it from Iraqi invasion in Op. Desert Shield (US Today, Des. Shield Factbook, Gulf War Chronicle)"", ""US restores Kuwaiti government in Desert Storm (USA Today, Gulf War Chronicle)"", ""US moves troops into Iraq from Saudi Arabia (USA Today, Factbook, Gulf War Chronicle)"")","c(""3957"", ""3973"", ""3974"")","Operation Desert Storm","c(""Desert Shield"", ""Desert Storm"")","c(""Operation Desert Storm"", ""Task Force Freedom"")"
"46","Cruise missile strikes on Iraq","Q1781133","Gulf War","Q37643","DESERT STRIKE","US build up in Kuwait to respond to Iraqi border build-up (UPI, AP)","3568","Operation Southern Watch, Operation Vigilant Warrior, Operation Provide Comfort/ Provide Comfort II/ Operation Northern Watch","Desert Strike/ Kuwait deployment","Operation Desert Strike"
"47","Operation Vigilant Sentinel","Q7097689","Gulf War","Q37643","GULF WAR","US build up in Kuwait to respond to Iraqi border build-up (UPI, AP)","3568","Operation Southern Watch, Operation Vigilant Warrior, Operation Provide Comfort/ Provide Comfort II/ Operation Northern Watch","c(""Desert Shield"", ""Desert Storm"")","Operation Vigilant Sentinel"
"48","Operation Desert Spring","Q7096978","Gulf War","Q37643","GULF WAR","US build up in Kuwait to respond to Iraqi border build-up (UPI, AP)","3568","Operation Southern Watch, Operation Vigilant Warrior, Operation Provide Comfort/ Provide Comfort II/ Operation Northern Watch","c(""Desert Shield"", ""Desert Storm"")","Exercise Intrinsic Action/Desert Spring"
"49","Operation Desert Thunder","Q3354687","Gulf War","Q37643","GULF WAR","US build up in Kuwait to respond to Iraqi border build-up (UPI, AP)","3568","Operation Southern Watch, Operation Vigilant Warrior, Operation Provide Comfort/ Provide Comfort II/ Operation Northern Watch","Ops Desert Thunder/ Desert Fox","Operation Desert Thunder"
"50","Operation Northern Watch","Q2026233","Gulf War","Q37643","GULF WAR","US build up in Kuwait to respond to Iraqi border build-up (UPI, AP)","3568","Operation Southern Watch, Operation Vigilant Warrior, Operation Provide Comfort/ Provide Comfort II/ Operation Northern Watch","c(""Desert Shield"", ""Desert Storm"")","Operation Northern Watch"
"51","Operation Provide Comfort","Q2281470","Gulf War","Q37643","GULF WAR","US build up in Kuwait to respond to Iraqi border build-up (UPI, AP)","3568","Operation Southern Watch, Operation Vigilant Warrior, Operation Provide Comfort/ Provide Comfort II/ Operation Northern Watch","Ops Provide Comfort/ Northern Watch","Operation Provide Comfort"
"52","1993 cruise missile strikes on Iraq","Q5189962","Gulf War","Q37643","GULF WAR","US build up in Kuwait to respond to Iraqi border build-up (UPI, AP)","3568","Operation Southern Watch, Operation Vigilant Warrior, Operation Provide Comfort/ Provide Comfort II/ Operation Northern Watch","Operation Southern Watch","Operation Southern Watch"
"53","Bombing of Iraq","Q1327861","Gulf War","Q37643","GULF WAR","US build up in Kuwait to respond to Iraqi border build-up (UPI, AP)","3568","Operation Southern Watch, Operation Vigilant Warrior, Operation Provide Comfort/ Provide Comfort II/ Operation Northern Watch","Operation Southern Watch","Operation Southern Watch"
"54","January 1993 airstrikes on Iraq","Q105773263","Gulf War","Q37643","GULF WAR","US build up in Kuwait to respond to Iraqi border build-up (UPI, AP)","3568","Operation Southern Watch, Operation Vigilant Warrior, Operation Provide Comfort/ Provide Comfort II/ Operation Northern Watch","Operation Southern Watch","Operation Southern Watch"
"55","Operation Southern Focus","Q2739563","Gulf War","Q37643","GULF WAR","US build up in Kuwait to respond to Iraqi border build-up (UPI, AP)","3568","Operation Southern Watch, Operation Vigilant Warrior, Operation Provide Comfort/ Provide Comfort II/ Operation Northern Watch","Operation Southern Watch","Operation Southern Watch"
"56","Operation Vigilant Warrior","Q1838811","Gulf War","Q37643","IRAQ DEPLOY./KUWAIT","US build up in Kuwait to respond to Iraqi border build-up (UPI, AP)","3568","Operation Southern Watch, Operation Vigilant Warrior, Operation Provide Comfort/ Provide Comfort II/ Operation Northern Watch","Operation Southern Watch","Operation Southern Watch"
"57","Battle of 73 Easting","Q1402530","Gulf War","Q37643","GULF WAR","c(""US in Saudi Arabia to protect it from Iraqi invasion in Op. Desert Shield (US Today, Des. Shield Factbook, Gulf War Chronicle)"", ""US restores Kuwaiti government in Desert Storm (USA Today, Gulf War Chronicle)"", ""US moves troops into Iraq from Saudi Arabia (USA Today, Factbook, Gulf War Chronicle)"")","c(""3957"", ""3973"", ""3974"")","Operation Desert Shield","c(""Desert Shield"", ""Desert Storm"")","c(""Operation Desert Storm"", ""Task Force Freedom"")"
"58","Battle of Ad-Dawrah","Q4870215","Gulf War","Q37643","GULF WAR","c(""US in Saudi Arabia to protect it from Iraqi invasion in Op. Desert Shield (US Today, Des. Shield Factbook, Gulf War Chronicle)"", ""US restores Kuwaiti government in Desert Storm (USA Today, Gulf War Chronicle)"", ""US moves troops into Iraq from Saudi Arabia (USA Today, Factbook, Gulf War Chronicle)"")","c(""3957"", ""3973"", ""3974"")","Operation Desert Shield","c(""Desert Shield"", ""Desert Storm"")","c(""Operation Desert Storm"", ""Task Force Freedom"")"
"59","Battle of Khafji","Q718770","Gulf War","Q37643","GULF WAR","c(""US in Saudi Arabia to protect it from Iraqi invasion in Op. Desert Shield (US Today, Des. Shield Factbook, Gulf War Chronicle)"", ""US restores Kuwaiti government in Desert Storm (USA Today, Gulf War Chronicle)"", ""US moves troops into Iraq from Saudi Arabia (USA Today, Factbook, Gulf War Chronicle)"")","c(""3957"", ""3973"", ""3974"")","Operation Desert Shield","c(""Desert Shield"", ""Desert Storm"")","c(""Operation Desert Storm"", ""Task Force Freedom"")"
"60","Battle of Kuwait International Airport","Q19428991","Gulf War","Q37643","GULF WAR","c(""US in Saudi Arabia to protect it from Iraqi invasion in Op. Desert Shield (US Today, Des. Shield Factbook, Gulf War Chronicle)"", ""US restores Kuwaiti government in Desert Storm (USA Today, Gulf War Chronicle)"", ""US moves troops into Iraq from Saudi Arabia (USA Today, Factbook, Gulf War Chronicle)"")","c(""3957"", ""3973"", ""3974"")","Operation Desert Shield","c(""Desert Shield"", ""Desert Storm"")","c(""Operation Desert Storm"", ""Task Force Freedom"")"
"61","Battle of Norfolk","Q3636553","Gulf War","Q37643","GULF WAR","c(""US in Saudi Arabia to protect it from Iraqi invasion in Op. Desert Shield (US Today, Des. Shield Factbook, Gulf War Chronicle)"", ""US restores Kuwaiti government in Desert Storm (USA Today, Gulf War Chronicle)"", ""US moves troops into Iraq from Saudi Arabia (USA Today, Factbook, Gulf War Chronicle)"")","c(""3957"", ""3973"", ""3974"")","Operation Desert Shield","c(""Desert Shield"", ""Desert Storm"")","c(""Operation Desert Storm"", ""Task Force Freedom"")"
"62","Battle of Qurah and Umm al Maradim","Q4872147","Gulf War","Q37643","GULF WAR","c(""US in Saudi Arabia to protect it from Iraqi invasion in Op. Desert Shield (US Today, Des. Shield Factbook, Gulf War Chronicle)"", ""US restores Kuwaiti government in Desert Storm (USA Today, Gulf War Chronicle)"", ""US moves troops into Iraq from Saudi Arabia (USA Today, Factbook, Gulf War Chronicle)"")","c(""3957"", ""3973"", ""3974"")","Operation Desert Shield","c(""Desert Shield"", ""Desert Storm"")","c(""Operation Desert Storm"", ""Task Force Freedom"")"
"63","Battle of Wadi Al-Batin","Q3636251","Gulf War","Q37643","GULF WAR","c(""US in Saudi Arabia to protect it from Iraqi invasion in Op. Desert Shield (US Today, Des. Shield Factbook, Gulf War Chronicle)"", ""US restores Kuwaiti government in Desert Storm (USA Today, Gulf War Chronicle)"", ""US moves troops into Iraq from Saudi Arabia (USA Today, Factbook, Gulf War Chronicle)"")","c(""3957"", ""3973"", ""3974"")","Operation Desert Shield","c(""Desert Shield"", ""Desert Storm"")","c(""Operation Desert Storm"", ""Task Force Freedom"")"
"64","Operation Senior Surprise","Q85790978","Gulf War","Q37643","GULF WAR","c(""US in Saudi Arabia to protect it from Iraqi invasion in Op. Desert Shield (US Today, Des. Shield Factbook, Gulf War Chronicle)"", ""US restores Kuwaiti government in Desert Storm (USA Today, Gulf War Chronicle)"", ""US moves troops into Iraq from Saudi Arabia (USA Today, Factbook, Gulf War Chronicle)"")","c(""3957"", ""3973"", ""3974"")","Operation Desert Shield","c(""Desert Shield"", ""Desert Storm"")","c(""Operation Desert Storm"", ""Task Force Freedom"")"
"65","Operation Unified Protector","Q3269455","Libyan Crisis","Q18702324","LIBYAN CIVILWAR",NA,NA,NA,NA,"Operation Odyssey Dawn"
"66","2016 Sirte offensive","Q24467647","Libyan Crisis","Q18702324",NA,NA,NA,NA,NA,NA
"67","Operation Infinite Reach","Q837887","Operation Infinite Reach","Q837887",NA,"c(""US carries out air strikes against suspected terrorist facilities in Sudan (TNS, PI)"", ""US uses cruise missiles to attack suspected terrorist facilities (Xinh, IP, DP)"")","c(""4217"", ""4227"")","c(""Operation Infinite Reach"", ""Operation Infinite Reach"")",NA,"Operation Infinite Reach"
"68","Operation Infinite Reach","Q837887","cruise missile strikes on Afghanistan and Sudan","Q837887",NA,"c(""US carries out air strikes against suspected terrorist facilities in Sudan (TNS, PI)"", ""US uses cruise missiles to attack suspected terrorist facilities (Xinh, IP, DP)"")","c(""4217"", ""4227"")","c(""Operation Infinite Reach"", ""Operation Infinite Reach"")",NA,"Operation Infinite Reach"
"69","U.S. raid on the Iranian Liaison Office in Arbil","Q7863480","U.S. raid on the Iranian Liaison Office in Arbil","Q7863480",NA,NA,"4535","Erbil Raid",NA,NA
"70","2014 American raid in Libya","Q23022941","Operation Enduring Freedom – Trans Sahara","Q2602154",NA,"US pursues Taliban insurgents into Pakistan (AFP)","c(""4524"", ""4527"", ""4568"", ""4571"", ""4577"", ""4397"", ""4540"", ""4581"", ""4543"", ""4598"")","Operation Juniper Shield",NA,NA
"71","Al-Karmah offensive (2015)","Q19864219","American-led intervention in Iraq (2014–present)","Q18159629",NA,"US pursues Taliban insurgents into Pakistan (AFP)","c(""4524"", ""4527"", ""4568"", ""4571"", ""4577"", ""4397"", ""4540"", ""4581"", ""4543"", ""4598"")","Operation Inherent Resolve",NA,"Anti-ISIL Air Strikes in Libya"
"72","Anbar campaign (2015–16)","Q22935666","American-led intervention in Iraq (2014–present)","Q18159629",NA,"US pursues Taliban insurgents into Pakistan (AFP)","c(""4524"", ""4527"", ""4568"", ""4571"", ""4577"", ""4397"", ""4540"", ""4581"", ""4543"", ""4598"")","Operation Inherent Resolve",NA,"Anti-ISIL Air Strikes in Libya"
"73","2017 Mosul airstrike","Q29524697","American-led intervention in Iraq (2014–present)","Q18159629",NA,"US pursues Taliban insurgents into Pakistan (AFP)","c(""4524"", ""4527"", ""4568"", ""4571"", ""4577"", ""4397"", ""4540"", ""4581"", ""4543"", ""4598"")","Operation Inherent Resolve",NA,"Anti-ISIL Air Strikes in Libya"
"74","Western Nineveh offensive (2017)","Q30014900","American-led intervention in Iraq (2014–present)","Q18159629",NA,"US pursues Taliban insurgents into Pakistan (AFP)","c(""4524"", ""4527"", ""4568"", ""4571"", ""4577"", ""4397"", ""4540"", ""4581"", ""4543"", ""4598"")","Operation Inherent Resolve",NA,"Anti-ISIL Air Strikes in Libya"
"75","Hawija offensive (2017)","Q40532579","American-led intervention in Iraq (2014–present)","Q18159629",NA,"US pursues Taliban insurgents into Pakistan (AFP)","c(""4524"", ""4527"", ""4568"", ""4571"", ""4577"", ""4397"", ""4540"", ""4581"", ""4543"", ""4598"")","Operation Inherent Resolve",NA,"Anti-ISIL Air Strikes in Libya"
"76","Mosul offensive (2016)","Q23540783","American-led intervention in Iraq (2014–present)","Q18159629",NA,"US pursues Taliban insurgents into Pakistan (AFP)","c(""4524"", ""4527"", ""4568"", ""4571"", ""4577"", ""4397"", ""4540"", ""4581"", ""4543"", ""4598"")","Operation Inherent Resolve",NA,"Anti-ISIL Air Strikes in Libya"
"77","November 2015 Sinjar offensive","Q21472342","American-led intervention in Iraq (2014–present)","Q18159629",NA,"US pursues Taliban insurgents into Pakistan (AFP)","c(""4524"", ""4527"", ""4568"", ""4571"", ""4577"", ""4397"", ""4540"", ""4581"", ""4543"", ""4598"")","Operation Inherent Resolve",NA,"Anti-ISIL Air Strikes in Libya"
"78","Salahuddin campaign","Q19574810","American-led intervention in Iraq (2014–present)","Q18159629",NA,"US pursues Taliban insurgents into Pakistan (AFP)","c(""4524"", ""4527"", ""4568"", ""4571"", ""4577"", ""4397"", ""4540"", ""4581"", ""4543"", ""4598"")","Operation Inherent Resolve",NA,"Anti-ISIL Air Strikes in Libya"
"79","Battle of Al Faw (2003)","Q1930510","Iraq conflict (2003–present)","Q47015896","IRAQ REGIME CHANGE","US topples Iraqi government (DP, AFX, CNN)","c(""4512"", ""4516"", ""4518"", ""4519"", ""4538"")","Operation Inherent Resolve",NA,"Anti-ISIL Air Strikes in Libya"
"80","Battle of Baghdad (2003)","Q1804983","Iraq conflict (2003–present)","Q47015896","IRAQ REGIME CHANGE","US topples Iraqi government (DP, AFX, CNN)","c(""4512"", ""4516"", ""4518"", ""4519"", ""4538"")","Operation Inherent Resolve",NA,"Anti-ISIL Air Strikes in Libya"
"81","Battle of Basra (2003)","Q2585300","Iraq conflict (2003–present)","Q47015896","IRAQ REGIME CHANGE","US topples Iraqi government (DP, AFX, CNN)","c(""4512"", ""4516"", ""4518"", ""4519"", ""4538"")","Operation Inherent Resolve",NA,"Anti-ISIL Air Strikes in Libya"
"82","Battle of Debecka Pass","Q4870854","Iraq conflict (2003–present)","Q47015896","IRAQ REGIME CHANGE","US topples Iraqi government (DP, AFX, CNN)","c(""4512"", ""4516"", ""4518"", ""4519"", ""4538"")","Operation Inherent Resolve",NA,"Anti-ISIL Air Strikes in Libya"
"83","Battle of Haditha Dam","Q40889886","Iraq conflict (2003–present)","Q47015896","IRAQ REGIME CHANGE","US topples Iraqi government (DP, AFX, CNN)","c(""4512"", ""4516"", ""4518"", ""4519"", ""4538"")","Operation Inherent Resolve",NA,"Anti-ISIL Air Strikes in Libya"
"84","Battle of Samawah (2003)","Q4872256","Iraq conflict (2003–present)","Q47015896","IRAQ REGIME CHANGE","US topples Iraqi government (DP, AFX, CNN)","c(""4512"", ""4516"", ""4518"", ""4519"", ""4538"")","Operation Inherent Resolve",NA,"Anti-ISIL Air Strikes in Libya"
"85","Operation Airborne Dragon","Q7096734","Iraq conflict (2003–present)","Q47015896","IRAQ REGIME CHANGE","US topples Iraqi government (DP, AFX, CNN)","c(""4512"", ""4516"", ""4518"", ""4519"", ""4538"")","Operation Inherent Resolve",NA,"Anti-ISIL Air Strikes in Libya"
"86","Operation Plymouth Rock","Q2026278","Iraq conflict (2003–present)","Q47015896","IRAQ REGIME CHANGE","US topples Iraqi government (DP, AFX, CNN)","c(""4512"", ""4516"", ""4518"", ""4519"", ""4538"")","Operation Inherent Resolve",NA,"Anti-ISIL Air Strikes in Libya"
"87","Operation Viking Hammer","Q1678616","Iraq conflict (2003–present)","Q47015896","IRAQ REGIME CHANGE","US topples Iraqi government (DP, AFX, CNN)","c(""4512"", ""4516"", ""4518"", ""4519"", ""4538"")","Operation Inherent Resolve",NA,"Anti-ISIL Air Strikes in Libya"
"88","2003 Mosul raid","Q65074171","Iraq conflict (2003–present)","Q47015896","IRAQ REGIME CHANGE","US topples Iraqi government (DP, AFX, CNN)","c(""4512"", ""4516"", ""4518"", ""4519"", ""4538"")","Operation Inherent Resolve",NA,"Anti-ISIL Air Strikes in Libya"
"89","2008 Abu Kamal raid","Q553332","Iraq conflict (2003–present)","Q47015896","IRAQ REGIME CHANGE","US topples Iraqi government (DP, AFX, CNN)","c(""4512"", ""4516"", ""4518"", ""4519"", ""4538"")","Operation Inherent Resolve",NA,"Anti-ISIL Air Strikes in Libya"
"90","Battle of Al-Qa'im","Q1975663","Iraq conflict (2003–present)","Q47015896","IRAQ REGIME CHANGE","US topples Iraqi government (DP, AFX, CNN)","c(""4512"", ""4516"", ""4518"", ""4519"", ""4538"")","Operation Inherent Resolve",NA,"Anti-ISIL Air Strikes in Libya"
"91","Battle of Haifa Street","Q4871175","Iraq conflict (2003–present)","Q47015896","IRAQ REGIME CHANGE","US topples Iraqi government (DP, AFX, CNN)","c(""4512"", ""4516"", ""4518"", ""4519"", ""4538"")","Operation Inherent Resolve",NA,"Anti-ISIL Air Strikes in Libya"
"92","Battle of Najaf (2004)","Q2889462","Iraq conflict (2003–present)","Q47015896","IRAQ REGIME CHANGE","US topples Iraqi government (DP, AFX, CNN)","c(""4512"", ""4516"", ""4518"", ""4519"", ""4538"")","Operation Inherent Resolve",NA,"Anti-ISIL Air Strikes in Libya"
"93","Battle of Ramadi (2006)","Q2889747","Iraq conflict (2003–present)","Q47015896","IRAQ REGIME CHANGE","US topples Iraqi government (DP, AFX, CNN)","c(""4512"", ""4516"", ""4518"", ""4519"", ""4538"")","Operation Inherent Resolve",NA,"Anti-ISIL Air Strikes in Libya"
"94","Battle of Samarra (2004)","Q4087318","Iraq conflict (2003–present)","Q47015896","IRAQ REGIME CHANGE","US topples Iraqi government (DP, AFX, CNN)","c(""4512"", ""4516"", ""4518"", ""4519"", ""4538"")","Operation Inherent Resolve",NA,"Anti-ISIL Air Strikes in Libya"
"95","Battle of Tal Afar (2005)","Q972831","Iraq conflict (2003–present)","Q47015896","IRAQ REGIME CHANGE","US topples Iraqi government (DP, AFX, CNN)","c(""4512"", ""4516"", ""4518"", ""4519"", ""4538"")","Operation Inherent Resolve",NA,"Anti-ISIL Air Strikes in Libya"
"96","Battle of the Palm Grove","Q4872982","Iraq conflict (2003–present)","Q47015896","IRAQ REGIME CHANGE","US topples Iraqi government (DP, AFX, CNN)","c(""4512"", ""4516"", ""4518"", ""4519"", ""4538"")","Operation Inherent Resolve",NA,"Anti-ISIL Air Strikes in Libya"
"97","Battle of Turki","Q4872608","Iraq conflict (2003–present)","Q47015896","IRAQ REGIME CHANGE","US topples Iraqi government (DP, AFX, CNN)","c(""4512"", ""4516"", ""4518"", ""4519"", ""4538"")","Operation Inherent Resolve",NA,"Anti-ISIL Air Strikes in Libya"
"98","Battle of Baqubah","Q2237337","Iraq conflict (2003–present)","Q47015896","IRAQ REGIME CHANGE","US topples Iraqi government (DP, AFX, CNN)","c(""4512"", ""4516"", ""4518"", ""4519"", ""4538"")","Operation Inherent Resolve",NA,"Anti-ISIL Air Strikes in Libya"
"99","Operation Augurs of Prosperity","Q3354646","Iraq conflict (2003–present)","Q47015896","IRAQ REGIME CHANGE","US topples Iraqi government (DP, AFX, CNN)","c(""4512"", ""4516"", ""4518"", ""4519"", ""4538"")","Operation Inherent Resolve",NA,"Anti-ISIL Air Strikes in Libya"
"100","Operation Spear","Q7097569","Iraq conflict (2003–present)","Q47015896","IRAQ REGIME CHANGE","US topples Iraqi government (DP, AFX, CNN)","c(""4512"", ""4516"", ""4518"", ""4519"", ""4538"")","Operation Inherent Resolve",NA,"Anti-ISIL Air Strikes in Libya"
"101","Operation Squeeze Play","Q7097575","Iraq conflict (2003–present)","Q47015896","IRAQ REGIME CHANGE","US topples Iraqi government (DP, AFX, CNN)","c(""4512"", ""4516"", ""4518"", ""4519"", ""4538"")","Operation Inherent Resolve",NA,"Anti-ISIL Air Strikes in Libya"
"102","Operation Swarmer","Q477040","Iraq conflict (2003–present)","Q47015896","IRAQ REGIME CHANGE","US topples Iraqi government (DP, AFX, CNN)","c(""4512"", ""4516"", ""4518"", ""4519"", ""4538"")","Operation Inherent Resolve",NA,"Anti-ISIL Air Strikes in Libya"
"103","Operation Tiger Hammer","Q7097639","Iraq conflict (2003–present)","Q47015896","IRAQ REGIME CHANGE","US topples Iraqi government (DP, AFX, CNN)","c(""4512"", ""4516"", ""4518"", ""4519"", ""4538"")","Operation Inherent Resolve",NA,"Anti-ISIL Air Strikes in Libya"
"104","First Battle of Fallujah","Q1537159","Iraq conflict (2003–present)","Q47015896","IRAQ REGIME CHANGE","US topples Iraqi government (DP, AFX, CNN)","c(""4512"", ""4516"", ""4518"", ""4519"", ""4538"")","Operation Inherent Resolve",NA,"Anti-ISIL Air Strikes in Libya"
"105","Iraq spring fighting of 2008","Q6067932","Iraq conflict (2003–present)","Q47015896","IRAQ REGIME CHANGE","US topples Iraqi government (DP, AFX, CNN)","c(""4512"", ""4516"", ""4518"", ""4519"", ""4538"")","Operation Inherent Resolve",NA,"Anti-ISIL Air Strikes in Libya"
"106","Operation Al Majid","Q7096735","Iraq conflict (2003–present)","Q47015896","IRAQ REGIME CHANGE","US topples Iraqi government (DP, AFX, CNN)","c(""4512"", ""4516"", ""4518"", ""4519"", ""4538"")","Operation Inherent Resolve",NA,"Anti-ISIL Air Strikes in Libya"
"107","Operation Sayeed","Q7097502","Iraq conflict (2003–present)","Q47015896","IRAQ REGIME CHANGE","US topples Iraqi government (DP, AFX, CNN)","c(""4512"", ""4516"", ""4518"", ""4519"", ""4538"")","Operation Inherent Resolve",NA,"Anti-ISIL Air Strikes in Libya"
"108","Operation Steel Curtain","Q642100","Iraq conflict (2003–present)","Q47015896","IRAQ REGIME CHANGE","US topples Iraqi government (DP, AFX, CNN)","c(""4512"", ""4516"", ""4518"", ""4519"", ""4538"")","Operation Inherent Resolve",NA,"Anti-ISIL Air Strikes in Libya"
"109","Battle of Baghdad","Q97304250","Iraq conflict (2003–present)","Q47015896","IRAQ REGIME CHANGE","US topples Iraqi government (DP, AFX, CNN)","c(""4512"", ""4516"", ""4518"", ""4519"", ""4538"")","Operation Inherent Resolve",NA,"Anti-ISIL Air Strikes in Libya"
"110","Second Battle of Habbaniyah","Q24083362","Iraq conflict (2003–present)","Q47015896","IRAQ REGIME CHANGE","US topples Iraqi government (DP, AFX, CNN)","c(""4512"", ""4516"", ""4518"", ""4519"", ""4538"")","Operation Inherent Resolve",NA,"Anti-ISIL Air Strikes in Libya"
"111","Operation Able Rising Force","Q7096724","Iraq conflict (2003–present)","Q47015896","IRAQ REGIME CHANGE","US topples Iraqi government (DP, AFX, CNN)","c(""4512"", ""4516"", ""4518"", ""4519"", ""4538"")","Operation Inherent Resolve",NA,"Anti-ISIL Air Strikes in Libya"
"112","Operation Able Warrior","Q7096725","Iraq conflict (2003–present)","Q47015896","IRAQ REGIME CHANGE","US topples Iraqi government (DP, AFX, CNN)","c(""4512"", ""4516"", ""4518"", ""4519"", ""4538"")","Operation Inherent Resolve",NA,"Anti-ISIL Air Strikes in Libya"
"113","Operation Arbead II","Q7096757","Iraq conflict (2003–present)","Q47015896","IRAQ REGIME CHANGE","US topples Iraqi government (DP, AFX, CNN)","c(""4512"", ""4516"", ""4518"", ""4519"", ""4538"")","Operation Inherent Resolve",NA,"Anti-ISIL Air Strikes in Libya"
"114","Operation Ardennes","Q7096760","Iraq conflict (2003–present)","Q47015896","IRAQ REGIME CHANGE","US topples Iraqi government (DP, AFX, CNN)","c(""4512"", ""4516"", ""4518"", ""4519"", ""4538"")","Operation Inherent Resolve",NA,"Anti-ISIL Air Strikes in Libya"
"115","Operation Badlands","Q7096780","Iraq conflict (2003–present)","Q47015896","IRAQ REGIME CHANGE","US topples Iraqi government (DP, AFX, CNN)","c(""4512"", ""4516"", ""4518"", ""4519"", ""4538"")","Operation Inherent Resolve",NA,"Anti-ISIL Air Strikes in Libya"
"116","Operation Bayonet Lightning","Q7096794","Iraq conflict (2003–present)","Q47015896","IRAQ REGIME CHANGE","US topples Iraqi government (DP, AFX, CNN)","c(""4512"", ""4516"", ""4518"", ""4519"", ""4538"")","Operation Inherent Resolve",NA,"Anti-ISIL Air Strikes in Libya"
"117","Operation Black Eagle","Q3354655","Iraq conflict (2003–present)","Q47015896","IRAQ REGIME CHANGE","US topples Iraqi government (DP, AFX, CNN)","c(""4512"", ""4516"", ""4518"", ""4519"", ""4538"")","Operation Inherent Resolve",NA,"Anti-ISIL Air Strikes in Libya"
"118","Operation Bulldog Mammoth","Q7096859","Iraq conflict (2003–present)","Q47015896","IRAQ REGIME CHANGE","US topples Iraqi government (DP, AFX, CNN)","c(""4512"", ""4516"", ""4518"", ""4519"", ""4538"")","Operation Inherent Resolve",NA,"Anti-ISIL Air Strikes in Libya"
"119","Operation Dagger","Q7096953","Iraq conflict (2003–present)","Q47015896","IRAQ REGIME CHANGE","US topples Iraqi government (DP, AFX, CNN)","c(""4512"", ""4516"", ""4518"", ""4519"", ""4538"")","Operation Inherent Resolve",NA,"Anti-ISIL Air Strikes in Libya"
"120","Operation Defeat Al Qaeda in the North","Q7096967","Iraq conflict (2003–present)","Q47015896","IRAQ REGIME CHANGE","US topples Iraqi government (DP, AFX, CNN)","c(""4512"", ""4516"", ""4518"", ""4519"", ""4538"")","Operation Inherent Resolve",NA,"Anti-ISIL Air Strikes in Libya"
"121","Operation Desert Scorpion (Iraq 2003)","Q7096982","Iraq conflict (2003–present)","Q47015896","IRAQ REGIME CHANGE","US topples Iraqi government (DP, AFX, CNN)","c(""4512"", ""4516"", ""4518"", ""4519"", ""4538"")","Operation Inherent Resolve",NA,"Anti-ISIL Air Strikes in Libya"
"122","Operation Desert Thrust","Q7096979","Iraq conflict (2003–present)","Q47015896","IRAQ REGIME CHANGE","US topples Iraqi government (DP, AFX, CNN)","c(""4512"", ""4516"", ""4518"", ""4519"", ""4538"")","Operation Inherent Resolve",NA,"Anti-ISIL Air Strikes in Libya"
"123","Operation Dragon Fire East","Q7097002","Iraq conflict (2003–present)","Q47015896","IRAQ REGIME CHANGE","US topples Iraqi government (DP, AFX, CNN)","c(""4512"", ""4516"", ""4518"", ""4519"", ""4538"")","Operation Inherent Resolve",NA,"Anti-ISIL Air Strikes in Libya"
"124","Operation Eagle Ares","Q7097017","Iraq conflict (2003–present)","Q47015896","IRAQ REGIME CHANGE","US topples Iraqi government (DP, AFX, CNN)","c(""4512"", ""4516"", ""4518"", ""4519"", ""4538"")","Operation Inherent Resolve",NA,"Anti-ISIL Air Strikes in Libya"
"125","Operation Forsythe Park","Q7097057","Iraq conflict (2003–present)","Q47015896","IRAQ REGIME CHANGE","US topples Iraqi government (DP, AFX, CNN)","c(""4512"", ""4516"", ""4518"", ""4519"", ""4538"")","Operation Inherent Resolve",NA,"Anti-ISIL Air Strikes in Libya"
"126","Operation Gaugamela","Q7097069","Iraq conflict (2003–present)","Q47015896","IRAQ REGIME CHANGE","US topples Iraqi government (DP, AFX, CNN)","c(""4512"", ""4516"", ""4518"", ""4519"", ""4538"")","Operation Inherent Resolve",NA,"Anti-ISIL Air Strikes in Libya"
"127","Operation Guardian Tiger IV","Q7097106","Iraq conflict (2003–present)","Q47015896","IRAQ REGIME CHANGE","US topples Iraqi government (DP, AFX, CNN)","c(""4512"", ""4516"", ""4518"", ""4519"", ""4538"")","Operation Inherent Resolve",NA,"Anti-ISIL Air Strikes in Libya"
"128","Operation Iron Hammer (Iraq 2003)","Q7097172","Iraq conflict (2003–present)","Q47015896","IRAQ REGIME CHANGE","US topples Iraqi government (DP, AFX, CNN)","c(""4512"", ""4516"", ""4518"", ""4519"", ""4538"")","Operation Inherent Resolve",NA,"Anti-ISIL Air Strikes in Libya"
"129","Operation Iron Hammer (Iraq 2005)","Q7097173","Iraq conflict (2003–present)","Q47015896","IRAQ REGIME CHANGE","US topples Iraqi government (DP, AFX, CNN)","c(""4512"", ""4516"", ""4518"", ""4519"", ""4538"")","Operation Inherent Resolve",NA,"Anti-ISIL Air Strikes in Libya"
"130","Operation Iron Justice","Q7097175","Iraq conflict (2003–present)","Q47015896","IRAQ REGIME CHANGE","US topples Iraqi government (DP, AFX, CNN)","c(""4512"", ""4516"", ""4518"", ""4519"", ""4538"")","Operation Inherent Resolve",NA,"Anti-ISIL Air Strikes in Libya"
"131","Operation Iron Saber","Q7097177","Iraq conflict (2003–present)","Q47015896","IRAQ REGIME CHANGE","US topples Iraqi government (DP, AFX, CNN)","c(""4512"", ""4516"", ""4518"", ""4519"", ""4538"")","Operation Inherent Resolve",NA,"Anti-ISIL Air Strikes in Libya"
"132","Operation Iron Triangle","Q7097176","Iraq conflict (2003–present)","Q47015896","IRAQ REGIME CHANGE","US topples Iraqi government (DP, AFX, CNN)","c(""4512"", ""4516"", ""4518"", ""4519"", ""4538"")","Operation Inherent Resolve",NA,"Anti-ISIL Air Strikes in Libya"
"133","Operation Ivy Blizzard","Q7097180","Iraq conflict (2003–present)","Q47015896","IRAQ REGIME CHANGE","US topples Iraqi government (DP, AFX, CNN)","c(""4512"", ""4516"", ""4518"", ""4519"", ""4538"")","Operation Inherent Resolve",NA,"Anti-ISIL Air Strikes in Libya"
"134","Operation Larchwood 4","Q23043314","Iraq conflict (2003–present)","Q47015896","IRAQ REGIME CHANGE","US topples Iraqi government (DP, AFX, CNN)","c(""4512"", ""4516"", ""4518"", ""4519"", ""4538"")","Operation Inherent Resolve",NA,"Anti-ISIL Air Strikes in Libya"
"135","Operation Leyte Gulf","Q7097226","Iraq conflict (2003–present)","Q47015896","IRAQ REGIME CHANGE","US topples Iraqi government (DP, AFX, CNN)","c(""4512"", ""4516"", ""4518"", ""4519"", ""4538"")","Operation Inherent Resolve",NA,"Anti-ISIL Air Strikes in Libya"
"136","Operation Lion's Leap","Q7097238","Iraq conflict (2003–present)","Q47015896","IRAQ REGIME CHANGE","US topples Iraqi government (DP, AFX, CNN)","c(""4512"", ""4516"", ""4518"", ""4519"", ""4538"")","Operation Inherent Resolve",NA,"Anti-ISIL Air Strikes in Libya"
"137","Operation Marlborough","Q7097269","Iraq conflict (2003–present)","Q47015896","IRAQ REGIME CHANGE","US topples Iraqi government (DP, AFX, CNN)","c(""4512"", ""4516"", ""4518"", ""4519"", ""4538"")","Operation Inherent Resolve",NA,"Anti-ISIL Air Strikes in Libya"
"138","Operation Marne Avalanche","Q7097270","Iraq conflict (2003–present)","Q47015896","IRAQ REGIME CHANGE","US topples Iraqi government (DP, AFX, CNN)","c(""4512"", ""4516"", ""4518"", ""4519"", ""4538"")","Operation Inherent Resolve",NA,"Anti-ISIL Air Strikes in Libya"
"139","Operation Mawtini","Q16932796","Iraq conflict (2003–present)","Q47015896","IRAQ REGIME CHANGE","US topples Iraqi government (DP, AFX, CNN)","c(""4512"", ""4516"", ""4518"", ""4519"", ""4538"")","Operation Inherent Resolve",NA,"Anti-ISIL Air Strikes in Libya"
"140","Operation Murfreesboro","Q7097303","Iraq conflict (2003–present)","Q47015896","IRAQ REGIME CHANGE","US topples Iraqi government (DP, AFX, CNN)","c(""4512"", ""4516"", ""4518"", ""4519"", ""4538"")","Operation Inherent Resolve",NA,"Anti-ISIL Air Strikes in Libya"
"141","Operation New Market","Q7097325","Iraq conflict (2003–present)","Q47015896","IRAQ REGIME CHANGE","US topples Iraqi government (DP, AFX, CNN)","c(""4512"", ""4516"", ""4518"", ""4519"", ""4538"")","Operation Inherent Resolve",NA,"Anti-ISIL Air Strikes in Libya"
"142","Operation Panther Squeeze","Q7097371","Iraq conflict (2003–present)","Q47015896","IRAQ REGIME CHANGE","US topples Iraqi government (DP, AFX, CNN)","c(""4512"", ""4516"", ""4518"", ""4519"", ""4538"")","Operation Inherent Resolve",NA,"Anti-ISIL Air Strikes in Libya"
"143","Operation Peninsula Strike","Q4335239","Iraq conflict (2003–present)","Q47015896","IRAQ REGIME CHANGE","US topples Iraqi government (DP, AFX, CNN)","c(""4512"", ""4516"", ""4518"", ""4519"", ""4538"")","Operation Inherent Resolve",NA,"Anti-ISIL Air Strikes in Libya"
"144","Operation Phantom Linebacker","Q7097388","Iraq conflict (2003–present)","Q47015896","IRAQ REGIME CHANGE","US topples Iraqi government (DP, AFX, CNN)","c(""4512"", ""4516"", ""4518"", ""4519"", ""4538"")","Operation Inherent Resolve",NA,"Anti-ISIL Air Strikes in Libya"
"145","Nineveh campaign","Q7038210","Iraq conflict (2003–present)","Q47015896","IRAQ REGIME CHANGE","US topples Iraqi government (DP, AFX, CNN)","c(""4512"", ""4516"", ""4518"", ""4519"", ""4538"")","Operation Inherent Resolve",NA,"Anti-ISIL Air Strikes in Libya"
"146","Operation Phantom Phoenix","Q2026267","Iraq conflict (2003–present)","Q47015896","IRAQ REGIME CHANGE","US topples Iraqi government (DP, AFX, CNN)","c(""4512"", ""4516"", ""4518"", ""4519"", ""4538"")","Operation Inherent Resolve",NA,"Anti-ISIL Air Strikes in Libya"
"147","Operation Phantom Strike","Q1697088","Iraq conflict (2003–present)","Q47015896","IRAQ REGIME CHANGE","US topples Iraqi government (DP, AFX, CNN)","c(""4512"", ""4516"", ""4518"", ""4519"", ""4538"")","Operation Inherent Resolve",NA,"Anti-ISIL Air Strikes in Libya"
"148","Operation Marne Courageous","Q16931346","Iraq conflict (2003–present)","Q47015896","IRAQ REGIME CHANGE","US topples Iraqi government (DP, AFX, CNN)","c(""4512"", ""4516"", ""4518"", ""4519"", ""4538"")","Operation Inherent Resolve",NA,"Anti-ISIL Air Strikes in Libya"
"149","Operation Alljah","Q7096739","Iraq conflict (2003–present)","Q47015896","IRAQ REGIME CHANGE","US topples Iraqi government (DP, AFX, CNN)","c(""4512"", ""4516"", ""4518"", ""4519"", ""4538"")","Operation Inherent Resolve",NA,"Anti-ISIL Air Strikes in Libya"
"150","Operation Phantom Thunder","Q2026272","Iraq conflict (2003–present)","Q47015896","IRAQ REGIME CHANGE","US topples Iraqi government (DP, AFX, CNN)","c(""4512"", ""4516"", ""4518"", ""4519"", ""4538"")","Operation Inherent Resolve",NA,"Anti-ISIL Air Strikes in Libya"
"151","Operation Bull Run","Q11798527","Iraq conflict (2003–present)","Q47015896","IRAQ REGIME CHANGE","US topples Iraqi government (DP, AFX, CNN)","c(""4512"", ""4516"", ""4518"", ""4519"", ""4538"")","Operation Inherent Resolve",NA,"Anti-ISIL Air Strikes in Libya"
"152","Operation Commando Eagle","Q7096918","Iraq conflict (2003–present)","Q47015896","IRAQ REGIME CHANGE","US topples Iraqi government (DP, AFX, CNN)","c(""4512"", ""4516"", ""4518"", ""4519"", ""4538"")","Operation Inherent Resolve",NA,"Anti-ISIL Air Strikes in Libya"
"153","Operation Marne Torch","Q2026187","Iraq conflict (2003–present)","Q47015896","IRAQ REGIME CHANGE","US topples Iraqi government (DP, AFX, CNN)","c(""4512"", ""4516"", ""4518"", ""4519"", ""4538"")","Operation Inherent Resolve",NA,"Anti-ISIL Air Strikes in Libya"
"154","Operation Planet X","Q7097399","Iraq conflict (2003–present)","Q47015896","IRAQ REGIME CHANGE","US topples Iraqi government (DP, AFX, CNN)","c(""4512"", ""4516"", ""4518"", ""4519"", ""4538"")","Operation Inherent Resolve",NA,"Anti-ISIL Air Strikes in Libya"
"155","Operation Polar Tempest","Q7097403","Iraq conflict (2003–present)","Q47015896","IRAQ REGIME CHANGE","US topples Iraqi government (DP, AFX, CNN)","c(""4512"", ""4516"", ""4518"", ""4519"", ""4538"")","Operation Inherent Resolve",NA,"Anti-ISIL Air Strikes in Libya"
"156","Operation Purple Haze","Q7097429","Iraq conflict (2003–present)","Q47015896","IRAQ REGIME CHANGE","US topples Iraqi government (DP, AFX, CNN)","c(""4512"", ""4516"", ""4518"", ""4519"", ""4538"")","Operation Inherent Resolve",NA,"Anti-ISIL Air Strikes in Libya"
"157","Operation Red Dawn","Q3780506","Iraq conflict (2003–present)","Q47015896","IRAQ REGIME CHANGE","US topples Iraqi government (DP, AFX, CNN)","c(""4512"", ""4516"", ""4518"", ""4519"", ""4538"")","Operation Inherent Resolve",NA,"Anti-ISIL Air Strikes in Libya"
"158","Operation River Falcon","Q7097465","Iraq conflict (2003–present)","Q47015896","IRAQ REGIME CHANGE","US topples Iraqi government (DP, AFX, CNN)","c(""4512"", ""4516"", ""4518"", ""4519"", ""4538"")","Operation Inherent Resolve",NA,"Anti-ISIL Air Strikes in Libya"
"159","Operation Saber Guardian","Q7097481","Iraq conflict (2003–present)","Q47015896","IRAQ REGIME CHANGE","US topples Iraqi government (DP, AFX, CNN)","c(""4512"", ""4516"", ""4518"", ""4519"", ""4538"")","Operation Inherent Resolve",NA,"Anti-ISIL Air Strikes in Libya"
"160","Operation Scorpion","Q7097510","Iraq conflict (2003–present)","Q47015896","IRAQ REGIME CHANGE","US topples Iraqi government (DP, AFX, CNN)","c(""4512"", ""4516"", ""4518"", ""4519"", ""4538"")","Operation Inherent Resolve",NA,"Anti-ISIL Air Strikes in Libya"
"161","Operation Shurta Nasir","Q7097544","Iraq conflict (2003–present)","Q47015896","IRAQ REGIME CHANGE","US topples Iraqi government (DP, AFX, CNN)","c(""4512"", ""4516"", ""4518"", ""4519"", ""4538"")","Operation Inherent Resolve",NA,"Anti-ISIL Air Strikes in Libya"
"162","Operation Together Forward","Q7097646","Iraq conflict (2003–present)","Q47015896","IRAQ REGIME CHANGE","US topples Iraqi government (DP, AFX, CNN)","c(""4512"", ""4516"", ""4518"", ""4519"", ""4538"")","Operation Inherent Resolve",NA,"Anti-ISIL Air Strikes in Libya"
"163","Operation Valiant Guardian","Q7097682","Iraq conflict (2003–present)","Q47015896","IRAQ REGIME CHANGE","US topples Iraqi government (DP, AFX, CNN)","c(""4512"", ""4516"", ""4518"", ""4519"", ""4538"")","Operation Inherent Resolve",NA,"Anti-ISIL Air Strikes in Libya"
"164","Operation Warrior's Rage","Q7097703","Iraq conflict (2003–present)","Q47015896","IRAQ REGIME CHANGE","US topples Iraqi government (DP, AFX, CNN)","c(""4512"", ""4516"", ""4518"", ""4519"", ""4538"")","Operation Inherent Resolve",NA,"Anti-ISIL Air Strikes in Libya"
"165","Second Battle of Fallujah","Q1330136","Iraq conflict (2003–present)","Q47015896","IRAQ REGIME CHANGE","US topples Iraqi government (DP, AFX, CNN)","c(""4512"", ""4516"", ""4518"", ""4519"", ""4538"")","Operation Inherent Resolve",NA,"Anti-ISIL Air Strikes in Libya"
"166","Battle of Basra (2008)","Q2888122","Iraq conflict (2003–present)","Q47015896","IRAQ REGIME CHANGE","US topples Iraqi government (DP, AFX, CNN)","c(""4512"", ""4516"", ""4518"", ""4519"", ""4538"")","Operation Inherent Resolve",NA,"Anti-ISIL Air Strikes in Libya"
"167","Siege of Sadr City","Q3486016","Iraq conflict (2003–present)","Q47015896","IRAQ REGIME CHANGE","US topples Iraqi government (DP, AFX, CNN)","c(""4512"", ""4516"", ""4518"", ""4519"", ""4538"")","Operation Inherent Resolve",NA,"Anti-ISIL Air Strikes in Libya"
"168","Operation Imposing Law","Q1747422","Iraq conflict (2003–present)","Q47015896","IRAQ REGIME CHANGE","US topples Iraqi government (DP, AFX, CNN)","c(""4512"", ""4516"", ""4518"", ""4519"", ""4538"")","Operation Inherent Resolve",NA,"Anti-ISIL Air Strikes in Libya"
"169","Mosul offensive (2015)","Q20647259","Iraq conflict (2003–present)","Q47015896",NA,"US pursues Taliban insurgents into Pakistan (AFP)","c(""4524"", ""4527"", ""4568"", ""4571"", ""4577"", ""4397"", ""4540"", ""4581"", ""4543"", ""4598"")","Operation Inherent Resolve",NA,"Anti-ISIL Air Strikes in Libya"
"170","Nineveh Plains offensive","Q21814411","Iraq conflict (2003–present)","Q47015896",NA,"US pursues Taliban insurgents into Pakistan (AFP)","c(""4524"", ""4527"", ""4568"", ""4571"", ""4577"", ""4397"", ""4540"", ""4581"", ""4543"", ""4598"")","Operation Inherent Resolve",NA,"Anti-ISIL Air Strikes in Libya"
"171","Northern Iraq offensive","Q17984373","Iraq conflict (2003–present)","Q47015896",NA,"US pursues Taliban insurgents into Pakistan (AFP)","c(""4524"", ""4527"", ""4568"", ""4571"", ""4577"", ""4397"", ""4540"", ""4581"", ""4543"", ""4598"")","Operation Inherent Resolve",NA,"Anti-ISIL Air Strikes in Libya"
"172","2009 Baraawe raid","Q10751263","Operation Enduring Freedom – Horn of Africa","Q1195810",NA,"US pursues Taliban insurgents into Pakistan (AFP)","c(""4524"", ""4527"", ""4568"", ""4571"", ""4577"", ""4397"", ""4540"", ""4581"", ""4543"", ""4598"")","c(""Operation Enduring Freedom - Horn of Africa"", ""Operation Enduring Freedom - Horn of Africa (OEF-HOA)"", ""Operation Enduring Freedom - Horn of Africa"")",NA,NA
"173","2013 raid on Barawe","Q17000965","Operation Enduring Freedom – Horn of Africa","Q1195810",NA,"US pursues Taliban insurgents into Pakistan (AFP)","c(""4524"", ""4527"", ""4568"", ""4571"", ""4577"", ""4397"", ""4540"", ""4581"", ""4543"", ""4598"")","c(""Operation Enduring Freedom - Horn of Africa"", ""Operation Enduring Freedom - Horn of Africa (OEF-HOA)"", ""Operation Enduring Freedom - Horn of Africa"")",NA,NA
"174","Action of 18 March 2006","Q2984712","Operation Enduring Freedom – Horn of Africa","Q1195810",NA,"US pursues Taliban insurgents into Pakistan (AFP)","c(""4524"", ""4527"", ""4568"", ""4571"", ""4577"", ""4397"", ""4540"", ""4581"", ""4543"", ""4598"")","c(""Operation Enduring Freedom - Horn of Africa"", ""Operation Enduring Freedom - Horn of Africa (OEF-HOA)"", ""Operation Enduring Freedom - Horn of Africa"")",NA,NA
"175","Action of 28 October 2007","Q4677332","Operation Enduring Freedom – Horn of Africa","Q1195810",NA,"US pursues Taliban insurgents into Pakistan (AFP)","c(""4524"", ""4527"", ""4568"", ""4571"", ""4577"", ""4397"", ""4540"", ""4581"", ""4543"", ""4598"")","c(""Operation Enduring Freedom - Horn of Africa"", ""Operation Enduring Freedom - Horn of Africa (OEF-HOA)"", ""Operation Enduring Freedom - Horn of Africa"")",NA,NA
"176","Action of 3 June 2007","Q4677356","Operation Enduring Freedom – Horn of Africa","Q1195810",NA,"US pursues Taliban insurgents into Pakistan (AFP)","c(""4524"", ""4527"", ""4568"", ""4571"", ""4577"", ""4397"", ""4540"", ""4581"", ""4543"", ""4598"")","c(""Operation Enduring Freedom - Horn of Africa"", ""Operation Enduring Freedom - Horn of Africa (OEF-HOA)"", ""Operation Enduring Freedom - Horn of Africa"")",NA,NA
"177","November 2017 Somalia airstrike","Q60755056","Operation Enduring Freedom – Horn of Africa","Q1195810",NA,"US pursues Taliban insurgents into Pakistan (AFP)","c(""4524"", ""4527"", ""4568"", ""4571"", ""4577"", ""4397"", ""4540"", ""4581"", ""4543"", ""4598"")","c(""Operation Enduring Freedom - Horn of Africa"", ""Operation Enduring Freedom - Horn of Africa (OEF-HOA)"", ""Operation Enduring Freedom - Horn of Africa"")",NA,NA
"178","December 2018 airstrikes in Gandarshe","Q60765736","Operation Enduring Freedom – Horn of Africa","Q1195810",NA,"US pursues Taliban insurgents into Pakistan (AFP)","c(""4524"", ""4527"", ""4568"", ""4571"", ""4577"", ""4397"", ""4540"", ""4581"", ""4543"", ""4598"")","c(""Operation Enduring Freedom - Horn of Africa"", ""Operation Enduring Freedom - Horn of Africa (OEF-HOA)"", ""Operation Enduring Freedom - Horn of Africa"")",NA,NA
"179","Battle of Bargal (2007)","Q4870424","Operation Enduring Freedom – Horn of Africa","Q1195810",NA,"US pursues Taliban insurgents into Pakistan (AFP)","c(""4524"", ""4527"", ""4568"", ""4571"", ""4577"", ""4397"", ""4540"", ""4581"", ""4543"", ""4598"")","c(""Operation Enduring Freedom - Horn of Africa"", ""Operation Enduring Freedom - Horn of Africa (OEF-HOA)"", ""Operation Enduring Freedom - Horn of Africa"")",NA,NA
"180","Battle of Ras Kamboni","Q4872168","Operation Enduring Freedom – Horn of Africa","Q1195810",NA,"US pursues Taliban insurgents into Pakistan (AFP)","c(""4524"", ""4527"", ""4568"", ""4571"", ""4577"", ""4397"", ""4540"", ""4581"", ""4543"", ""4598"")","c(""Operation Enduring Freedom - Horn of Africa"", ""Operation Enduring Freedom - Horn of Africa (OEF-HOA)"", ""Operation Enduring Freedom - Horn of Africa"")",NA,NA
"181","Dhusamareb airstrike","Q1328419","Operation Enduring Freedom – Horn of Africa","Q1195810",NA,"US pursues Taliban insurgents into Pakistan (AFP)","c(""4524"", ""4527"", ""4568"", ""4571"", ""4577"", ""4397"", ""4540"", ""4581"", ""4543"", ""4598"")","c(""Operation Enduring Freedom - Horn of Africa"", ""Operation Enduring Freedom - Horn of Africa (OEF-HOA)"", ""Operation Enduring Freedom - Horn of Africa"")",NA,NA
"182","Operation Observant Compass","Q65066391","Operation Enduring Freedom – Horn of Africa","Q1195810",NA,"US pursues Taliban insurgents into Pakistan (AFP)","c(""4524"", ""4527"", ""4568"", ""4571"", ""4577"", ""4397"", ""4540"", ""4581"", ""4543"", ""4598"")","c(""Operation Enduring Freedom - Horn of Africa"", ""Operation Enduring Freedom - Horn of Africa (OEF-HOA)"", ""Operation Enduring Freedom - Horn of Africa"")",NA,"U.S. Military Support to African-Led Counter–Lord’s Resistance Army Operations"
"183","Operation Ocean Shield","Q2001981","Operation Enduring Freedom – Horn of Africa","Q1195810",NA,"US pursues Taliban insurgents into Pakistan (AFP)","c(""4524"", ""4527"", ""4568"", ""4571"", ""4577"", ""4397"", ""4540"", ""4581"", ""4543"", ""4598"")","c(""Operation Enduring Freedom - Horn of Africa"", ""Operation Enduring Freedom - Horn of Africa (OEF-HOA)"", ""Operation Enduring Freedom - Horn of Africa"")",NA,NA
"184","SY Quest incident","Q647100","Operation Enduring Freedom – Horn of Africa","Q1195810",NA,"US pursues Taliban insurgents into Pakistan (AFP)","c(""4524"", ""4527"", ""4568"", ""4571"", ""4577"", ""4397"", ""4540"", ""4581"", ""4543"", ""4598"")","c(""Operation Enduring Freedom - Horn of Africa"", ""Operation Enduring Freedom - Horn of Africa (OEF-HOA)"", ""Operation Enduring Freedom - Horn of Africa"")",NA,NA
"185","Rescue of Jessica Buchanan and Poul Hagen Thisted","Q7315022","Operation Enduring Freedom – Horn of Africa","Q1195810",NA,"US pursues Taliban insurgents into Pakistan (AFP)","c(""4524"", ""4527"", ""4568"", ""4571"", ""4577"", ""4397"", ""4540"", ""4581"", ""4543"", ""4598"")","c(""Operation Enduring Freedom - Horn of Africa"", ""Operation Enduring Freedom - Horn of Africa (OEF-HOA)"", ""Operation Enduring Freedom - Horn of Africa"")",NA,NA
"186","Operation Enduring Freedom – Philippines","Q2631285","Operation Enduring Freedom – Philippines","Q2631285",NA,"US pursues Taliban insurgents into Pakistan (AFP)","c(""4524"", ""4527"", ""4568"", ""4571"", ""4577"", ""4397"", ""4540"", ""4581"", ""4543"", ""4598"")","Operation Freedom Eagle; Operation Enduring Freedom - Philippines",NA,NA
"187","2001 Sayyd Alma Kalay airstrike","Q4599065","War in Afghanistan","Q182865","AFGHANISTAN/US","US forces attack Taliban positions in Afghanistan (Global Security, TASS)","4283","War in Afghanistan","Operation Enduring Freedom-Afghanistan","c(""Operation Enduring Freedom"", ""Operation Swift Freedom"", ""Operation Enduring Freedom"")"
"188","2001 uprising in Herat","Q3152953","War in Afghanistan","Q182865","AFGHANISTAN/US","US forces attack Taliban positions in Afghanistan (Global Security, TASS)","4283","War in Afghanistan","Operation Enduring Freedom-Afghanistan","c(""Operation Enduring Freedom"", ""Operation Swift Freedom"", ""Operation Enduring Freedom"")"
"189","2009 Kunduz airstrike","Q1848486","War in Afghanistan","Q182865","AFGHANISTAN/US","US forces attack Taliban positions in Afghanistan (Global Security, TASS)","4283","War in Afghanistan","Operation Enduring Freedom-Afghanistan","c(""Operation Enduring Freedom"", ""Operation Swift Freedom"", ""Operation Enduring Freedom"")"
"190","2010 Sangin airstrike","Q7418013","War in Afghanistan","Q182865","AFGHANISTAN/US","US forces attack Taliban positions in Afghanistan (Global Security, TASS)","4283","War in Afghanistan","Operation Enduring Freedom-Afghanistan","c(""Operation Enduring Freedom"", ""Operation Swift Freedom"", ""Operation Enduring Freedom"")"
"191","2012 Kapisa airstrike","Q4625940","War in Afghanistan","Q182865","AFGHANISTAN/US","US forces attack Taliban positions in Afghanistan (Global Security, TASS)","4283","War in Afghanistan","Operation Enduring Freedom-Afghanistan","c(""Operation Enduring Freedom"", ""Operation Swift Freedom"", ""Operation Enduring Freedom"")"
"192","2017 Nangarhar airstrike","Q29385187","War in Afghanistan","Q182865","AFGHANISTAN/US","US forces attack Taliban positions in Afghanistan (Global Security, TASS)","4283","War in Afghanistan","Operation Enduring Freedom-Afghanistan","c(""Operation Enduring Freedom"", ""Operation Swift Freedom"", ""Operation Enduring Freedom"")"
"193","Azizabad airstrike","Q2909596","War in Afghanistan","Q182865","AFGHANISTAN/US","US forces attack Taliban positions in Afghanistan (Global Security, TASS)","4283","War in Afghanistan","Operation Enduring Freedom-Afghanistan","c(""Operation Enduring Freedom"", ""Operation Swift Freedom"", ""Operation Enduring Freedom"")"
"194","Baraki Barak airstrike","Q4858273","War in Afghanistan","Q182865","AFGHANISTAN/US","US forces attack Taliban positions in Afghanistan (Global Security, TASS)","4283","War in Afghanistan","Operation Enduring Freedom-Afghanistan","c(""Operation Enduring Freedom"", ""Operation Swift Freedom"", ""Operation Enduring Freedom"")"
"195","Battle of Alasay","Q385546","War in Afghanistan","Q182865","AFGHANISTAN/US","US forces attack Taliban positions in Afghanistan (Global Security, TASS)","4283","War in Afghanistan","Operation Enduring Freedom-Afghanistan","c(""Operation Enduring Freedom"", ""Operation Swift Freedom"", ""Operation Enduring Freedom"")"
"196","Battle of Barawala Kalay Valley","Q24905428","War in Afghanistan","Q182865","AFGHANISTAN/US","US forces attack Taliban positions in Afghanistan (Global Security, TASS)","4283","War in Afghanistan","Operation Enduring Freedom-Afghanistan","c(""Operation Enduring Freedom"", ""Operation Swift Freedom"", ""Operation Enduring Freedom"")"
"197","Battle of Chora","Q1485258","War in Afghanistan","Q182865","AFGHANISTAN/US","US forces attack Taliban positions in Afghanistan (Global Security, TASS)","4283","War in Afghanistan","Operation Enduring Freedom-Afghanistan","c(""Operation Enduring Freedom"", ""Operation Swift Freedom"", ""Operation Enduring Freedom"")"
"198","Battle of Do Ab","Q4870881","War in Afghanistan","Q182865","AFGHANISTAN/US","US forces attack Taliban positions in Afghanistan (Global Security, TASS)","4283","War in Afghanistan","Operation Enduring Freedom-Afghanistan","c(""Operation Enduring Freedom"", ""Operation Swift Freedom"", ""Operation Enduring Freedom"")"
"199","Battle of Kamdesh","Q2664174","War in Afghanistan","Q182865","AFGHANISTAN/US","US forces attack Taliban positions in Afghanistan (Global Security, TASS)","4283","War in Afghanistan","Operation Enduring Freedom-Afghanistan","c(""Operation Enduring Freedom"", ""Operation Swift Freedom"", ""Operation Enduring Freedom"")"
"200","Battle of Khaz Oruzgan","Q4871421","War in Afghanistan","Q182865","AFGHANISTAN/US","US forces attack Taliban positions in Afghanistan (Global Security, TASS)","4283","War in Afghanistan","Operation Enduring Freedom-Afghanistan","c(""Operation Enduring Freedom"", ""Operation Swift Freedom"", ""Operation Enduring Freedom"")"
"201","Operation Medusa","Q1763044","War in Afghanistan","Q182865","AFGHANISTAN/US","US forces attack Taliban positions in Afghanistan (Global Security, TASS)","4283","War in Afghanistan","Operation Enduring Freedom-Afghanistan","c(""Operation Enduring Freedom"", ""Operation Swift Freedom"", ""Operation Enduring Freedom"")"
"202","Battle of Shok Valley","Q4872371","War in Afghanistan","Q182865","AFGHANISTAN/US","US forces attack Taliban positions in Afghanistan (Global Security, TASS)","4283","War in Afghanistan","Operation Enduring Freedom-Afghanistan","c(""Operation Enduring Freedom"", ""Operation Swift Freedom"", ""Operation Enduring Freedom"")"
"203","Bombing of Kandahar (2001)","Q4871376","War in Afghanistan","Q182865","AFGHANISTAN/US","US forces attack Taliban positions in Afghanistan (Global Security, TASS)","4283","War in Afghanistan","Operation Enduring Freedom-Afghanistan","c(""Operation Enduring Freedom"", ""Operation Swift Freedom"", ""Operation Enduring Freedom"")"
"204","Operation Halmazag","Q1234017","War in Afghanistan","Q182865","AFGHANISTAN/US","US forces attack Taliban positions in Afghanistan (Global Security, TASS)","4283","War in Afghanistan","Operation Enduring Freedom-Afghanistan","c(""Operation Enduring Freedom"", ""Operation Swift Freedom"", ""Operation Enduring Freedom"")"
"205","Operation Oqab","Q2026247","War in Afghanistan","Q182865","AFGHANISTAN/US","US forces attack Taliban positions in Afghanistan (Global Security, TASS)","4283","War in Afghanistan","Operation Enduring Freedom-Afghanistan","c(""Operation Enduring Freedom"", ""Operation Swift Freedom"", ""Operation Enduring Freedom"")"
"206","Fall of Kandahar","Q2888881","War in Afghanistan","Q182865","AFGHANISTAN/US","US forces attack Taliban positions in Afghanistan (Global Security, TASS)","4283","War in Afghanistan","Operation Enduring Freedom-Afghanistan","c(""Operation Enduring Freedom"", ""Operation Swift Freedom"", ""Operation Enduring Freedom"")"
"207","Fall of Mazar-i-Sharif","Q2889318","War in Afghanistan","Q182865","AFGHANISTAN/US","US forces attack Taliban positions in Afghanistan (Global Security, TASS)","4283","War in Afghanistan","Operation Enduring Freedom-Afghanistan","c(""Operation Enduring Freedom"", ""Operation Swift Freedom"", ""Operation Enduring Freedom"")"
"208","First and Second Battles of Kakarak","Q5454117","War in Afghanistan","Q182865","AFGHANISTAN/US","US forces attack Taliban positions in Afghanistan (Global Security, TASS)","4283","War in Afghanistan","Operation Enduring Freedom-Afghanistan","c(""Operation Enduring Freedom"", ""Operation Swift Freedom"", ""Operation Enduring Freedom"")"
"209","Gora Prai airstrike","Q5584353","War in Afghanistan","Q182865","AFGHANISTAN/US","US forces attack Taliban positions in Afghanistan (Global Security, TASS)","4283","War in Afghanistan","Operation Enduring Freedom-Afghanistan","c(""Operation Enduring Freedom"", ""Operation Swift Freedom"", ""Operation Enduring Freedom"")"
"210","Granai airstrike","Q1136783","War in Afghanistan","Q182865","AFGHANISTAN/US","US forces attack Taliban positions in Afghanistan (Global Security, TASS)","4283","War in Afghanistan","Operation Enduring Freedom-Afghanistan","c(""Operation Enduring Freedom"", ""Operation Swift Freedom"", ""Operation Enduring Freedom"")"
"211","Haska Meyna wedding party airstrike","Q5252012","War in Afghanistan","Q182865","AFGHANISTAN/US","US forces attack Taliban positions in Afghanistan (Global Security, TASS)","4283","War in Afghanistan","Operation Enduring Freedom-Afghanistan","c(""Operation Enduring Freedom"", ""Operation Swift Freedom"", ""Operation Enduring Freedom"")"
"212","Hyderabad airstrike","Q5953962","War in Afghanistan","Q182865","AFGHANISTAN/US","US forces attack Taliban positions in Afghanistan (Global Security, TASS)","4283","War in Afghanistan","Operation Enduring Freedom-Afghanistan","c(""Operation Enduring Freedom"", ""Operation Swift Freedom"", ""Operation Enduring Freedom"")"
"213","2007 Helmand Province airstrikes","Q4608594","War in Afghanistan","Q182865","AFGHANISTAN/US","US forces attack Taliban positions in Afghanistan (Global Security, TASS)","4283","War in Afghanistan","Operation Enduring Freedom-Afghanistan","c(""Operation Enduring Freedom"", ""Operation Swift Freedom"", ""Operation Enduring Freedom"")"
"214","Battle of Garmsir","Q4871080","War in Afghanistan","Q182865","AFGHANISTAN/US","US forces attack Taliban positions in Afghanistan (Global Security, TASS)","4283","War in Afghanistan","Operation Enduring Freedom-Afghanistan","c(""Operation Enduring Freedom"", ""Operation Swift Freedom"", ""Operation Enduring Freedom"")"
"215","Siege of Musa Qala","Q7510253","War in Afghanistan","Q182865","AFGHANISTAN/US","US forces attack Taliban positions in Afghanistan (Global Security, TASS)","4283","War in Afghanistan","Operation Enduring Freedom-Afghanistan","c(""Operation Enduring Freedom"", ""Operation Swift Freedom"", ""Operation Enduring Freedom"")"
"216","Battle of Dahaneh","Q2888379","War in Afghanistan","Q182865","AFGHANISTAN/US","US forces attack Taliban positions in Afghanistan (Global Security, TASS)","4283","War in Afghanistan","Operation Enduring Freedom-Afghanistan","c(""Operation Enduring Freedom"", ""Operation Swift Freedom"", ""Operation Enduring Freedom"")"
"217","Operation Cobra's Anger","Q1128855","War in Afghanistan","Q182865","AFGHANISTAN/US","US forces attack Taliban positions in Afghanistan (Global Security, TASS)","4283","War in Afghanistan","Operation Enduring Freedom-Afghanistan","c(""Operation Enduring Freedom"", ""Operation Swift Freedom"", ""Operation Enduring Freedom"")"
"218","Operation Strike of the Sword","Q2549377","War in Afghanistan","Q182865","AFGHANISTAN/US","US forces attack Taliban positions in Afghanistan (Global Security, TASS)","4283","War in Afghanistan","Operation Enduring Freedom-Afghanistan","c(""Operation Enduring Freedom"", ""Operation Swift Freedom"", ""Operation Enduring Freedom"")"
"219","Battle of Sangin (2010)","Q4872292","War in Afghanistan","Q182865","AFGHANISTAN/US","US forces attack Taliban positions in Afghanistan (Global Security, TASS)","4283","War in Afghanistan","Operation Enduring Freedom-Afghanistan","c(""Operation Enduring Freedom"", ""Operation Swift Freedom"", ""Operation Enduring Freedom"")"
"220","Fall of Sangin","Q30686667","War in Afghanistan","Q182865","AFGHANISTAN/US","US forces attack Taliban positions in Afghanistan (Global Security, TASS)","4283","War in Afghanistan","Operation Enduring Freedom-Afghanistan","c(""Operation Enduring Freedom"", ""Operation Swift Freedom"", ""Operation Enduring Freedom"")"
"221","Operation Achilles","Q1616794","War in Afghanistan","Q182865","AFGHANISTAN/US","US forces attack Taliban positions in Afghanistan (Global Security, TASS)","4283","War in Afghanistan","Operation Enduring Freedom-Afghanistan","c(""Operation Enduring Freedom"", ""Operation Swift Freedom"", ""Operation Enduring Freedom"")"
"222","Operation Eagle Fury","Q7097022","War in Afghanistan","Q182865","AFGHANISTAN/US","US forces attack Taliban positions in Afghanistan (Global Security, TASS)","4283","War in Afghanistan","Operation Enduring Freedom-Afghanistan","c(""Operation Enduring Freedom"", ""Operation Swift Freedom"", ""Operation Enduring Freedom"")"
"223","Operation Eagle's Summit","Q3354694","War in Afghanistan","Q182865","AFGHANISTAN/US","US forces attack Taliban positions in Afghanistan (Global Security, TASS)","4283","War in Afghanistan","Operation Enduring Freedom-Afghanistan","c(""Operation Enduring Freedom"", ""Operation Swift Freedom"", ""Operation Enduring Freedom"")"
"224","Operation Hammer (Afghanistan)","Q3030335","War in Afghanistan","Q182865","AFGHANISTAN/US","US forces attack Taliban positions in Afghanistan (Global Security, TASS)","4283","War in Afghanistan","Operation Enduring Freedom-Afghanistan","c(""Operation Enduring Freedom"", ""Operation Swift Freedom"", ""Operation Enduring Freedom"")"
"225","Operation Kaika","Q3354740","War in Afghanistan","Q182865","AFGHANISTAN/US","US forces attack Taliban positions in Afghanistan (Global Security, TASS)","4283","War in Afghanistan","Operation Enduring Freedom-Afghanistan","c(""Operation Enduring Freedom"", ""Operation Swift Freedom"", ""Operation Enduring Freedom"")"
"226","Operation Moshtarak","Q843588","War in Afghanistan","Q182865","AFGHANISTAN/US","US forces attack Taliban positions in Afghanistan (Global Security, TASS)","4283","War in Afghanistan","Operation Enduring Freedom-Afghanistan","c(""Operation Enduring Freedom"", ""Operation Swift Freedom"", ""Operation Enduring Freedom"")"
"227","Operation Mountain Fury","Q909414","War in Afghanistan","Q182865","AFGHANISTAN/US","US forces attack Taliban positions in Afghanistan (Global Security, TASS)","4283","War in Afghanistan","Operation Enduring Freedom-Afghanistan","c(""Operation Enduring Freedom"", ""Operation Swift Freedom"", ""Operation Enduring Freedom"")"
"228","Operation Mountain Thrust","Q609978","War in Afghanistan","Q182865","AFGHANISTAN/US","US forces attack Taliban positions in Afghanistan (Global Security, TASS)","4283","War in Afghanistan","Operation Enduring Freedom-Afghanistan","c(""Operation Enduring Freedom"", ""Operation Swift Freedom"", ""Operation Enduring Freedom"")"
"229","Operation Panther's Claw","Q3354803","War in Afghanistan","Q182865","AFGHANISTAN/US","US forces attack Taliban positions in Afghanistan (Global Security, TASS)","4283","War in Afghanistan","Operation Enduring Freedom-Afghanistan","c(""Operation Enduring Freedom"", ""Operation Swift Freedom"", ""Operation Enduring Freedom"")"
"230","Operation Pickaxe-Handle","Q7097394","War in Afghanistan","Q182865","AFGHANISTAN/US","US forces attack Taliban positions in Afghanistan (Global Security, TASS)","4283","War in Afghanistan","Operation Enduring Freedom-Afghanistan","c(""Operation Enduring Freedom"", ""Operation Swift Freedom"", ""Operation Enduring Freedom"")"
"231","September 2012 raid on Camp Bastion","Q15276208","War in Afghanistan","Q182865","AFGHANISTAN/US","US forces attack Taliban positions in Afghanistan (Global Security, TASS)","4283","War in Afghanistan","Operation Enduring Freedom-Afghanistan","c(""Operation Enduring Freedom"", ""Operation Swift Freedom"", ""Operation Enduring Freedom"")"
"232","Operation Champion Sword","Q7096884","War in Afghanistan","Q182865","AFGHANISTAN/US","US forces attack Taliban positions in Afghanistan (Global Security, TASS)","4283","War in Afghanistan","Operation Enduring Freedom-Afghanistan","c(""Operation Enduring Freedom"", ""Operation Swift Freedom"", ""Operation Enduring Freedom"")"
"233","Operation Red Wings","Q3354826","War in Afghanistan","Q182865","AFGHANISTAN/US","US forces attack Taliban positions in Afghanistan (Global Security, TASS)","4283","War in Afghanistan","Operation Enduring Freedom-Afghanistan","c(""Operation Enduring Freedom"", ""Operation Swift Freedom"", ""Operation Enduring Freedom"")"
"234","Operation Rock Avalanche","Q2026322","War in Afghanistan","Q182865","AFGHANISTAN/US","US forces attack Taliban positions in Afghanistan (Global Security, TASS)","4283","War in Afghanistan","Operation Enduring Freedom-Afghanistan","c(""Operation Enduring Freedom"", ""Operation Swift Freedom"", ""Operation Enduring Freedom"")"
"235","Mano Gai airstrike","Q6751071","War in Afghanistan","Q182865","AFGHANISTAN/US","US forces attack Taliban positions in Afghanistan (Global Security, TASS)","4283","War in Afghanistan","Operation Enduring Freedom-Afghanistan","c(""Operation Enduring Freedom"", ""Operation Swift Freedom"", ""Operation Enduring Freedom"")"
"236","Mohmand Valley raid","Q60770016","War in Afghanistan","Q182865","AFGHANISTAN/US","US forces attack Taliban positions in Afghanistan (Global Security, TASS)","4283","War in Afghanistan","Operation Enduring Freedom-Afghanistan","c(""Operation Enduring Freedom"", ""Operation Swift Freedom"", ""Operation Enduring Freedom"")"
"237","Night raid on Narang","Q6965344","War in Afghanistan","Q182865","AFGHANISTAN/US","US forces attack Taliban positions in Afghanistan (Global Security, TASS)","4283","War in Afghanistan","Operation Enduring Freedom-Afghanistan","c(""Operation Enduring Freedom"", ""Operation Swift Freedom"", ""Operation Enduring Freedom"")"
"238","Operation Anaconda","Q1476042","War in Afghanistan","Q182865","AFGHANISTAN/US","US forces attack Taliban positions in Afghanistan (Global Security, TASS)","4283","War in Afghanistan","Operation Enduring Freedom-Afghanistan","c(""Operation Enduring Freedom"", ""Operation Swift Freedom"", ""Operation Enduring Freedom"")"
"239","Operation Asbury Park","Q7096764","War in Afghanistan","Q182865","AFGHANISTAN/US","US forces attack Taliban positions in Afghanistan (Global Security, TASS)","4283","War in Afghanistan","Operation Enduring Freedom-Afghanistan","c(""Operation Enduring Freedom"", ""Operation Swift Freedom"", ""Operation Enduring Freedom"")"
"240","Operation Avalanche (Afghanistan)","Q7096775","War in Afghanistan","Q182865","AFGHANISTAN/US","US forces attack Taliban positions in Afghanistan (Global Security, TASS)","4283","War in Afghanistan","Operation Enduring Freedom-Afghanistan","c(""Operation Enduring Freedom"", ""Operation Swift Freedom"", ""Operation Enduring Freedom"")"
"241","Operation Bulldog Bite","Q7096856","War in Afghanistan","Q182865","AFGHANISTAN/US","US forces attack Taliban positions in Afghanistan (Global Security, TASS)","4283","War in Afghanistan","Operation Enduring Freedom-Afghanistan","c(""Operation Enduring Freedom"", ""Operation Swift Freedom"", ""Operation Enduring Freedom"")"
"242","Operation Crescent Wind","Q7096941","War in Afghanistan","Q182865","AFGHANISTAN/US","US forces attack Taliban positions in Afghanistan (Global Security, TASS)","4283","War in Afghanistan","Operation Enduring Freedom-Afghanistan","c(""Operation Enduring Freedom"", ""Operation Swift Freedom"", ""Operation Enduring Freedom"")"
"243","Operation Dragon Strike","Q2026053","War in Afghanistan","Q182865","AFGHANISTAN/US","US forces attack Taliban positions in Afghanistan (Global Security, TASS)","4283","War in Afghanistan","Operation Enduring Freedom-Afghanistan","c(""Operation Enduring Freedom"", ""Operation Swift Freedom"", ""Operation Enduring Freedom"")"
"244","Operation Hammer Down","Q30589255","War in Afghanistan","Q182865","AFGHANISTAN/US","US forces attack Taliban positions in Afghanistan (Global Security, TASS)","4283","War in Afghanistan","Operation Enduring Freedom-Afghanistan","c(""Operation Enduring Freedom"", ""Operation Swift Freedom"", ""Operation Enduring Freedom"")"
"245","Operation Harekate Yolo","Q1511923","War in Afghanistan","Q182865","AFGHANISTAN/US","US forces attack Taliban positions in Afghanistan (Global Security, TASS)","4283","War in Afghanistan","Operation Enduring Freedom-Afghanistan","c(""Operation Enduring Freedom"", ""Operation Swift Freedom"", ""Operation Enduring Freedom"")"
"246","Operation Harpoon (2002)","Q2396979","War in Afghanistan","Q182865","AFGHANISTAN/US","US forces attack Taliban positions in Afghanistan (Global Security, TASS)","4283","War in Afghanistan","Operation Enduring Freedom-Afghanistan","c(""Operation Enduring Freedom"", ""Operation Swift Freedom"", ""Operation Enduring Freedom"")"
"247","Operation Haven Denial","Q7097122","War in Afghanistan","Q182865","AFGHANISTAN/US","US forces attack Taliban positions in Afghanistan (Global Security, TASS)","4283","War in Afghanistan","Operation Enduring Freedom-Afghanistan","c(""Operation Enduring Freedom"", ""Operation Swift Freedom"", ""Operation Enduring Freedom"")"
"248","Operation Jacana","Q3354735","War in Afghanistan","Q182865","AFGHANISTAN/US","US forces attack Taliban positions in Afghanistan (Global Security, TASS)","4283","War in Afghanistan","Operation Enduring Freedom-Afghanistan","c(""Operation Enduring Freedom"", ""Operation Swift Freedom"", ""Operation Enduring Freedom"")"
"249","Operation Karez","Q1518797","War in Afghanistan","Q182865","AFGHANISTAN/US","US forces attack Taliban positions in Afghanistan (Global Security, TASS)","4283","War in Afghanistan","Operation Enduring Freedom-Afghanistan","c(""Operation Enduring Freedom"", ""Operation Swift Freedom"", ""Operation Enduring Freedom"")"
"250","Operation Mongoose (2003)","Q65076683","War in Afghanistan","Q182865","AFGHANISTAN/US","US forces attack Taliban positions in Afghanistan (Global Security, TASS)","4283","War in Afghanistan","Operation Enduring Freedom-Afghanistan","c(""Operation Enduring Freedom"", ""Operation Swift Freedom"", ""Operation Enduring Freedom"")"
"251","Operation Mountain Resolve","Q7097302","War in Afghanistan","Q182865","AFGHANISTAN/US","US forces attack Taliban positions in Afghanistan (Global Security, TASS)","4283","War in Afghanistan","Operation Enduring Freedom-Afghanistan","c(""Operation Enduring Freedom"", ""Operation Swift Freedom"", ""Operation Enduring Freedom"")"
"252","Operation Mountain Viper","Q5473413","War in Afghanistan","Q182865","AFGHANISTAN/US","US forces attack Taliban positions in Afghanistan (Global Security, TASS)","4283","War in Afghanistan","Operation Enduring Freedom-Afghanistan","c(""Operation Enduring Freedom"", ""Operation Swift Freedom"", ""Operation Enduring Freedom"")"
"253","Operation Perth","Q4744313","War in Afghanistan","Q182865","AFGHANISTAN/US","US forces attack Taliban positions in Afghanistan (Global Security, TASS)","4283","War in Afghanistan","Operation Enduring Freedom-Afghanistan","c(""Operation Enduring Freedom"", ""Operation Swift Freedom"", ""Operation Enduring Freedom"")"
"254","Operation Rhino","Q3417667","War in Afghanistan","Q182865","AFGHANISTAN/US","US forces attack Taliban positions in Afghanistan (Global Security, TASS)","4283","War in Afghanistan","Operation Enduring Freedom-Afghanistan","c(""Operation Enduring Freedom"", ""Operation Swift Freedom"", ""Operation Enduring Freedom"")"
"255","Operation Septentrion","Q3354840","War in Afghanistan","Q182865","AFGHANISTAN/US","US forces attack Taliban positions in Afghanistan (Global Security, TASS)","4283","War in Afghanistan","Operation Enduring Freedom-Afghanistan","c(""Operation Enduring Freedom"", ""Operation Swift Freedom"", ""Operation Enduring Freedom"")"
"256","Operation Tar Heels","Q7097613","War in Afghanistan","Q182865","AFGHANISTAN/US","US forces attack Taliban positions in Afghanistan (Global Security, TASS)","4283","War in Afghanistan","Operation Enduring Freedom-Afghanistan","c(""Operation Enduring Freedom"", ""Operation Swift Freedom"", ""Operation Enduring Freedom"")"
"257","Operation Valiant Strike","Q7097684","War in Afghanistan","Q182865","AFGHANISTAN/US","US forces attack Taliban positions in Afghanistan (Global Security, TASS)","4283","War in Afghanistan","Operation Enduring Freedom-Afghanistan","c(""Operation Enduring Freedom"", ""Operation Swift Freedom"", ""Operation Enduring Freedom"")"
"258","Operation Warrior Sweep","Q7097704","War in Afghanistan","Q182865","AFGHANISTAN/US","US forces attack Taliban positions in Afghanistan (Global Security, TASS)","4283","War in Afghanistan","Operation Enduring Freedom-Afghanistan","c(""Operation Enduring Freedom"", ""Operation Swift Freedom"", ""Operation Enduring Freedom"")"
"259","Operation Whalers","Q7097713","War in Afghanistan","Q182865","AFGHANISTAN/US","US forces attack Taliban positions in Afghanistan (Global Security, TASS)","4283","War in Afghanistan","Operation Enduring Freedom-Afghanistan","c(""Operation Enduring Freedom"", ""Operation Swift Freedom"", ""Operation Enduring Freedom"")"
"260","Oruzgan police station attack of January 2002","Q7105180","War in Afghanistan","Q182865","AFGHANISTAN/US","US forces attack Taliban positions in Afghanistan (Global Security, TASS)","4283","War in Afghanistan","Operation Enduring Freedom-Afghanistan","c(""Operation Enduring Freedom"", ""Operation Swift Freedom"", ""Operation Enduring Freedom"")"
"261","Raid on Khataba","Q6400879","War in Afghanistan","Q182865","AFGHANISTAN/US","US forces attack Taliban positions in Afghanistan (Global Security, TASS)","4283","War in Afghanistan","Operation Enduring Freedom-Afghanistan","c(""Operation Enduring Freedom"", ""Operation Swift Freedom"", ""Operation Enduring Freedom"")"
"262","Raid on Kunar","Q6444187","War in Afghanistan","Q182865","AFGHANISTAN/US","US forces attack Taliban positions in Afghanistan (Global Security, TASS)","4283","War in Afghanistan","Operation Enduring Freedom-Afghanistan","c(""Operation Enduring Freedom"", ""Operation Swift Freedom"", ""Operation Enduring Freedom"")"
"263","2017 Sangin airstrike","Q30323833","War in Afghanistan","Q182865","AFGHANISTAN/US","US forces attack Taliban positions in Afghanistan (Global Security, TASS)","4283","War in Afghanistan","Operation Enduring Freedom-Afghanistan","c(""Operation Enduring Freedom"", ""Operation Swift Freedom"", ""Operation Enduring Freedom"")"
"264","Operation Freedom's Sentinel","Q21296923","War in Afghanistan","Q182865","AFGHANISTAN/US","US forces attack Taliban positions in Afghanistan (Global Security, TASS)","4283","War in Afghanistan","Operation Enduring Freedom-Afghanistan","c(""Operation Enduring Freedom"", ""Operation Swift Freedom"", ""Operation Enduring Freedom"")"
"265","Kunduz hospital airstrike","Q21057198","War in Afghanistan","Q182865","AFGHANISTAN/US","US forces attack Taliban positions in Afghanistan (Global Security, TASS)","4283","War in Afghanistan","Operation Enduring Freedom-Afghanistan","c(""Operation Enduring Freedom"", ""Operation Swift Freedom"", ""Operation Enduring Freedom"")"
"266","Ghazni offensive","Q56085424","War in Afghanistan","Q182865","AFGHANISTAN/US","US forces attack Taliban positions in Afghanistan (Global Security, TASS)","4283","War in Afghanistan","Operation Enduring Freedom-Afghanistan","c(""Operation Enduring Freedom"", ""Operation Swift Freedom"", ""Operation Enduring Freedom"")"
"267","Nangarhar Offensive (2016)","Q23039091","War in Afghanistan","Q182865","AFGHANISTAN/US","US forces attack Taliban positions in Afghanistan (Global Security, TASS)","4283","War in Afghanistan","Operation Enduring Freedom-Afghanistan","c(""Operation Enduring Freedom"", ""Operation Swift Freedom"", ""Operation Enduring Freedom"")"
"268","Shah Wali Kot Offensive","Q2083522","War in Afghanistan","Q182865","AFGHANISTAN/US","US forces attack Taliban positions in Afghanistan (Global Security, TASS)","4283","War in Afghanistan","Operation Enduring Freedom-Afghanistan","c(""Operation Enduring Freedom"", ""Operation Swift Freedom"", ""Operation Enduring Freedom"")"
"269","Siege of Kunduz","Q3485911","War in Afghanistan","Q182865","AFGHANISTAN/US","US forces attack Taliban positions in Afghanistan (Global Security, TASS)","4283","War in Afghanistan","Operation Enduring Freedom-Afghanistan","c(""Operation Enduring Freedom"", ""Operation Swift Freedom"", ""Operation Enduring Freedom"")"
"270","Battle of Tarinkot","Q4872509","War in Afghanistan","Q182865","AFGHANISTAN/US","US forces attack Taliban positions in Afghanistan (Global Security, TASS)","4283","War in Afghanistan","Operation Enduring Freedom-Afghanistan","c(""Operation Enduring Freedom"", ""Operation Swift Freedom"", ""Operation Enduring Freedom"")"
"271","Battle of Tora Bora","Q2237280","War in Afghanistan","Q182865","AFGHANISTAN/US","US forces attack Taliban positions in Afghanistan (Global Security, TASS)","4283","War in Afghanistan","Operation Enduring Freedom-Afghanistan","c(""Operation Enduring Freedom"", ""Operation Swift Freedom"", ""Operation Enduring Freedom"")"
"272","Fall of Kabul","Q5432157","War in Afghanistan","Q182865","AFGHANISTAN/US","US forces attack Taliban positions in Afghanistan (Global Security, TASS)","4283","War in Afghanistan","Operation Enduring Freedom-Afghanistan","c(""Operation Enduring Freedom"", ""Operation Swift Freedom"", ""Operation Enduring Freedom"")"
"273","Raid on Hazar Qadam","Q5687552","War in Afghanistan","Q182865","AFGHANISTAN/US","US forces attack Taliban positions in Afghanistan (Global Security, TASS)","4283","War in Afghanistan","Operation Enduring Freedom-Afghanistan","c(""Operation Enduring Freedom"", ""Operation Swift Freedom"", ""Operation Enduring Freedom"")"
"274","Uruzgan helicopter attack","Q8207886","War in Afghanistan","Q182865","AFGHANISTAN/US","US forces attack Taliban positions in Afghanistan (Global Security, TASS)","4283","War in Afghanistan","Operation Enduring Freedom-Afghanistan","c(""Operation Enduring Freedom"", ""Operation Swift Freedom"", ""Operation Enduring Freedom"")"
"275","Wech Baghtu wedding party airstrike","Q7979006","War in Afghanistan","Q182865","AFGHANISTAN/US","US forces attack Taliban positions in Afghanistan (Global Security, TASS)","4283","War in Afghanistan","Operation Enduring Freedom-Afghanistan","c(""Operation Enduring Freedom"", ""Operation Swift Freedom"", ""Operation Enduring Freedom"")"
"276","Baghar China airstrike","Q4841775","Insurgency in Khyber Pakhtunkhwa","Q179275",NA,"US pursues Taliban insurgents into Pakistan (AFP)","c(""4524"", ""4527"", ""4568"", ""4571"", ""4577"", ""4397"", ""4540"", ""4581"", ""4543"", ""4598"")",NA,NA,NA
"277","Chenagai airstrike","Q5091023","Insurgency in Khyber Pakhtunkhwa","Q179275",NA,"US pursues Taliban insurgents into Pakistan (AFP)","4575","c(""Drone Strikes in Waziristan"", ""Pakistan drone strikes"", ""Drone strikes"", ""Waziristan Drone Strikes"", ""Border clash"")",NA,NA
"278","Datta Khel airstrike","Q5227745","Insurgency in Khyber Pakhtunkhwa","Q179275",NA,"US pursues Taliban insurgents into Pakistan (AFP)","4575","c(""Drone Strikes in Waziristan"", ""Pakistan drone strikes"", ""Drone strikes"", ""Waziristan Drone Strikes"", ""Border clash"")",NA,NA
"279","Laghman airstrikes","Q6472107","Insurgency in Khyber Pakhtunkhwa","Q179275",NA,"US pursues Taliban insurgents into Pakistan (AFP)","4575","c(""Drone Strikes in Waziristan"", ""Pakistan drone strikes"", ""Drone strikes"", ""Waziristan Drone Strikes"", ""Border clash"")",NA,NA
"280","Miramshah airstrike","Q12327344","Insurgency in Khyber Pakhtunkhwa","Q179275",NA,"US pursues Taliban insurgents into Pakistan (AFP)","4575","c(""Drone Strikes in Waziristan"", ""Pakistan drone strikes"", ""Drone strikes"", ""Waziristan Drone Strikes"", ""Border clash"")",NA,NA
"281","Shrawangai Nazarkhel airstrike","Q7503440","Insurgency in Khyber Pakhtunkhwa","Q179275",NA,"US pursues Taliban insurgents into Pakistan (AFP)","4575","c(""Drone Strikes in Waziristan"", ""Pakistan drone strikes"", ""Drone strikes"", ""Waziristan Drone Strikes"", ""Border clash"")",NA,NA
"282","Abyan conflict","Q32634886","Yemeni Crisis","Q15946570",NA,NA,NA,NA,NA,NA
"283","Hadramaut Insurgency","Q30682487","Yemeni Crisis","Q15946570",NA,NA,NA,NA,NA,NA
"284","Raid on Al Hathla","Q30089867","Yemeni Crisis","Q15946570",NA,NA,NA,NA,NA,NA
"285","Raid on Yakla","Q28716912","Yemeni Crisis","Q15946570",NA,NA,NA,NA,NA,NA
"286","Battle of Al Mukalla (2016)","Q23935847","Yemeni Crisis","Q15946570",NA,NA,NA,NA,NA,NA
"287","Shabwah Governorate offensive","Q23022688","Yemeni Crisis","Q15946570",NA,NA,NA,NA,NA,NA
"288","Implementation Force","Q313577","Bosnian War","Q181533",NA,"US planes drop food in Bosnia-Herzegovina  (TS, Xinh, UP)    ",NA,"NATO Intervention in Bosnia","Operation Deliberate Force","IFOR"
"289","Operation Deliberate Force","Q160774","Bosnian War","Q181533",NA,"US planes drop food in Bosnia-Herzegovina  (TS, Xinh, UP)    ",NA,"NATO Intervention in Bosnia","Operation Deliberate Force",NA
"290","Operation Maritime Guard","Q971510","Bosnian War","Q181533",NA,"US planes drop food in Bosnia-Herzegovina  (TS, Xinh, UP)    ",NA,"NATO Intervention in Bosnia","Operation Deliberate Force",NA
"291","Operation Maritime Monitor","Q321054","Bosnian War","Q181533",NA,"US planes drop food in Bosnia-Herzegovina  (TS, Xinh, UP)    ",NA,"NATO Intervention in Bosnia","Operation Deliberate Force",NA
"292","Operation Sharp Guard","Q472398","Bosnian War","Q181533",NA,"US planes drop food in Bosnia-Herzegovina  (TS, Xinh, UP)    ","4046","NATO Intervention in Bosnia","Operation Deliberate Force",NA
"293","Operation Sky Monitor","Q1000306","Bosnian War","Q181533",NA,"US planes drop food in Bosnia-Herzegovina  (TS, Xinh, UP)    ",NA,"NATO Intervention in Bosnia","Operation Deliberate Force",NA
"294","Operation Deny Flight","Q567343","Bosnian War","Q181533",NA,"US planes drop food in Bosnia-Herzegovina  (TS, Xinh, UP)    ",NA,"NATO Intervention in Bosnia","Operation Deliberate Force","SFOR"
"295","Kosovo Force","Q159470","Kosovo War","Q190029","KOSOVO",NA,"4137","Kosovo Intervention","Operation Allied Force/ Noble Anvil","Operation Allied Force"
"296","1999 F-117A shootdown","Q335259","Kosovo War","Q190029","KOSOVO",NA,"4137","Kosovo Intervention","Operation Allied Force/ Noble Anvil","Operation Allied Force"
"297","Battle of Košare","Q3303959","Kosovo War","Q190029","KOSOVO",NA,"4137","Kosovo Intervention","Operation Allied Force/ Noble Anvil","Operation Allied Force"
"298","Dubrava Prison bombings and executions","Q16836125","Kosovo War","Q190029","KOSOVO",NA,"4137","Kosovo Intervention","Operation Allied Force/ Noble Anvil","Operation Allied Force"
"299","Grdelica train bombing","Q5598537","Kosovo War","Q190029","KOSOVO",NA,"4137","Kosovo Intervention","Operation Allied Force/ Noble Anvil","Operation Allied Force"
"300","Koriša bombing","Q2813755","Kosovo War","Q190029","KOSOVO",NA,"4137","Kosovo Intervention","Operation Allied Force/ Noble Anvil","Operation Allied Force"
"301","Lužane bus bombing","Q6706905","Kosovo War","Q190029","KOSOVO",NA,"4137","Kosovo Intervention","Operation Allied Force/ Noble Anvil","Operation Allied Force"
"302","NATO bombing of Albanian refugees near Gjakova","Q499623","Kosovo War","Q190029","KOSOVO",NA,"4137","Kosovo Intervention","Operation Allied Force/ Noble Anvil","Operation Allied Force"
"303","NATO bombing of Novi Sad","Q4594928","Kosovo War","Q190029","KOSOVO",NA,"4137","Kosovo Intervention","Operation Allied Force/ Noble Anvil","Operation Allied Force"
"304","NATO bombing of the Radio Television of Serbia headquarters","Q4475947","Kosovo War","Q190029","KOSOVO",NA,"4137","Kosovo Intervention","Operation Allied Force/ Noble Anvil","Operation Allied Force"
"305","Niš cluster bombing","Q4093050","Kosovo War","Q190029","KOSOVO",NA,"4137","Kosovo Intervention","Operation Allied Force/ Noble Anvil","Operation Allied Force"
"306","United States bombing of the Chinese embassy in Belgrade","Q2418042","Kosovo War","Q190029","KOSOVO",NA,"4137","Kosovo Intervention","Operation Allied Force/ Noble Anvil","Operation Allied Force"
